Listing Title,Listing SEO Title,Listing Email,Listing URL,Listing Address,Listing Address2,Listing Country,Listing Country Abbrevation,Listing Region,Listing Region Abbrevation,Listing State,Listing State Abbrevation,Listing City,Listing City Abbrevation,Listing Neighborhood,Listing Neighborhood Abbrevation,Listing Postal Code,Listing Latitude,Listing Longitude,Listing Phone,Listing Short Description,Listing Long Description,Listing SEO Description,Listing Keywords,Listing Renewal Data,Listing Status,Listing Level,Listing Category 1,Listing Category 2,Listing Category 3,Listing Category 4,Listing Category 5,Listing Template,Listing DB id,Custom ID,Account Username,Account Password,Account Contact First Name,Account Contact Last Name,Account Contact Company,Account Contact Address,Account Contact Address2,Account Contact Country,Account Contact State,Account Contact City,Account Contact Postal Code,Account Contact Phone,Account Contact Email,Account Contact URL
The Penthouse Club - Baton Rouge,The Penthouse Club - Baton Rouge Baton Rouge,,,4622 Bennington Ave,,United States,US,,,Louisiana,LA,Baton Rouge,,,,70808,,,(225) 923-0123,,,,,12/31/2050,Active,Silver,Nightlife->Adult Entertainment,Nightlife->Bars->Cocktail Bars,Arts & Entertainment->Cabaret,,,New Listing Template,,,,,,,,,,,,,,,,
Illusions Gentlemen's Club,Illusions Gentlemen's Club Woodville,,,1500 US Hwy 61 S,,United States,US,,,Mississippi,MS,Woodville,,,,39669,,,(601) 888-7755,,,,,12/31/2050,Active,Silver,Nightlife->Adult Entertainment,,,,,New Listing Template,,,,,,,,,,,,,,,,
The Gold Club,The Gold Club Geismar,,,37034 E Hwy 30,,United States,US,,,Louisiana,LA,Geismar,,,,70734,,,(225) 677-7236,,,,,12/31/2050,Active,Silver,Nightlife->Adult Entertainment->Strip Clubs,,,,,New Listing Template,,,,,,,,,,,,,,,,
Candy's Mens Club,Candy's Mens Club Pine Grove,,,41969 Hwy 16,,United States,US,,,Louisiana,LA,Pine Grove,,,,70453,,,(225) 955-4734,,,,,12/31/2050,Active,Silver,Nightlife->Adult Entertainment,Nightlife->Bars->Lounges,Nightlife->Dance Clubs,,,New Listing Template,,,,,,,,,,,,,,,,
Crazy Horse Cabaret,Crazy Horse Cabaret Port Allen,,,2901 I-10 Frontage Rd,,United States,US,,,Louisiana,LA,Port Allen,,,,70767,,,(225) 387-6444,,,,,12/31/2050,Active,Silver,Nightlife->Adult Entertainment,,,,,New Listing Template,,,,,,,,,,,,,,,,
Cash Magic/Silver Fox Casino,Cash Magic/Silver Fox Casino Denham Springs,,,40249 La Hwy 16,,United States,US,,,Louisiana,LA,Denham Springs,,,,70706,,,(225) 665-8306,,,,,12/31/2050,Active,Silver,Arts & Entertainment->Casinos,Nightlife->Adult Entertainment,,,,New Listing Template,,,,,,,,,,,,,,,,
The Ace of Clubs,The Ace of Clubs Thibodaux,,,1999 Bayou Rd,,United States,US,,,Louisiana,LA,Thibodaux,,,,70301,,,(985) 492-2101,,,,,12/31/2050,Active,Silver,Nightlife->Adult Entertainment,,,,,New Listing Template,,,,,,,,,,,,,,,,
fun parties,fun parties Thibodaux,,,1122 Hwy 20,,United States,US,,,Louisiana,LA,Thibodaux,,,,70301,,,(985) 633-2904,,,,,12/31/2050,Active,Silver,Nightlife->Adult Entertainment,,,,,New Listing Template,,,,,,,,,,,,,,,,
Slumber Parties,Slumber Parties Baton Rouge,,,4224 Evan Brooks Dr,,United States,US,,,Louisiana,LA,Baton Rouge,,,,70814,,,(225) 262-0384,,,,,12/31/2050,Active,Silver,Nightlife->Adult Entertainment,,,,,New Listing Template,,,,,,,,,,,,,,,,
The Cedar Saloon,The Cedar Saloon Morganza,,,7171 Morganza Hwy,,United States,US,,,Louisiana,LA,Morganza,,,,70759,,,(225) 618-6434,,,,,12/31/2050,Active,Silver,Nightlife->Bars->Pubs,Nightlife->Bar Crawl,,,,New Listing Template,,,,,,,,,,,,,,,,
Juban's,Juban's Baton Rouge,,,3739 Perkins Rd,,United States,US,,,Louisiana,LA,Baton Rouge,,,,70808,,,(225) 346-8422,,,,,12/31/2050,Active,Silver,Restaurants->Cajun/Creole,Event Planning & Services->Venues & Event Spaces,Nightlife->Bars,,,New Listing Template,,,,,,,,,,,,,,,,
The Sportsbook at L'Auberge Baton Rouge,The Sportsbook at L'Auberge Baton Rouge Baton Rouge,,,777 L'auberge Ave,,United States,US,,,Louisiana,LA,Baton Rouge,,,,70820,,,(225) 224-4122,,,,,12/31/2050,Active,Silver,Restaurants->American,Restaurants->Chicken Wings,Nightlife->Bars->Sports Bars,,,New Listing Template,,,,,,,,,,,,,,,,
Thai Kitchen,Thai Kitchen Baton Rouge,,,4550 Concord Ave,,United States,US,,,Louisiana,LA,Baton Rouge,,,,70808,,,(225) 346-1230,,,,,12/31/2050,Active,Silver,Restaurants->Thai,Restaurants->Sushi Bars,Nightlife->Bars->Sports Bars,,,New Listing Template,,,,,,,,,,,,,,,,
L A Daiquiris,L A Daiquiris Baton Rouge,,,1962 Oneal Ln,,United States,US,,,Louisiana,LA,Baton Rouge,,,,70816,,,(225) 752-1962,,,,,12/31/2050,Active,Silver,Nightlife->Bars->Sports Bars,Nightlife->Karaoke,Nightlife->Bars->Cocktail Bars,,,New Listing Template,,,,,,,,,,,,,,,,
Tip Off Sports Bar & Grill,Tip Off Sports Bar & Grill Baton Rouge,,,2972 Florida Blvd,,United States,US,,,Louisiana,LA,Baton Rouge,,,,70802,,,(225) 256-2254,,,,,12/31/2050,Active,Silver,Nightlife->Bars->Sports Bars,Restaurants->Burgers,Restaurants->Seafood,,,New Listing Template,,,,,,,,,,,,,,,,
Zea Rotisserie & Bar,Zea Rotisserie & Bar Denham Springs,,,27186 Crossing Cir,,United States,US,,,Louisiana,LA,Denham Springs,,,,70726,,,(225) 998-0111,,,,,12/31/2050,Active,Silver,Restaurants->New American,Restaurants->French,Nightlife->Bars->Cocktail Bars,,,New Listing Template,,,,,,,,,,,,,,,,
Daiquiri Cafe,Daiquiri Cafe Baton Rouge,,,2742 S Sherwood Forest Blvd,,United States,US,,,Louisiana,LA,Baton Rouge,,,,70816,,,(225) 291-5033,,,,,12/31/2050,Active,Silver,Nightlife->Bars,Restaurants->Cafes,,,,New Listing Template,,,,,,,,,,,,,,,,
Applebee's Grill + Bar,Applebee's Grill + Bar Baton Rouge,,,9702 Airline Hwy,,United States,US,,,Louisiana,LA,Baton Rouge,,,,70816,,,(225) 924-3001,,,,,12/31/2050,Active,Silver,Restaurants->American,Nightlife->Bars->Sports Bars,Restaurants->Burgers,,,New Listing Template,,,,,,,,,,,,,,,,
Zorba's Greek Bistro,Zorba's Greek Bistro Baton Rouge,,,5713 Essen Ln,,United States,US,,,Louisiana,LA,Baton Rouge,,,,70810,,,(225) 444-5074,,,,,12/31/2050,Active,Silver,Restaurants->Greek,Nightlife->Bars->Wine Bars,,,,New Listing Template,,,,,,,,,,,,,,,,
Shooters Lounge,Shooters Lounge Plaquemine,,,22405  Hwy 1,,United States,US,,,Louisiana,LA,Plaquemine,,,,70764,,,(225) 687-3255,,,,,12/31/2050,Active,Silver,Nightlife->Bars->Lounges,,,,,New Listing Template,,,,,,,,,,,,,,,,
Buffalo Wild Wings,Buffalo Wild Wings Baton Rouge,,,7524 Blue Bonnet Blvd,,United States,US,,,Louisiana,LA,Baton Rouge,,,,70810,,,(225) 819-8438,,,,,12/31/2050,Active,Silver,Restaurants->Chicken Wings,Restaurants->American,Nightlife->Bars->Sports Bars,,,New Listing Template,,,,,,,,,,,,,,,,
The Cottage Inn,The Cottage Inn Prairieville,,,14214 Hwy 73,,United States,US,,,Louisiana,LA,Prairieville,,,,70769,,,(225) 673-6755,,,,,12/31/2050,Active,Silver,Nightlife->Bars,,,,,New Listing Template,,,,,,,,,,,,,,,,
Lorraine's Pub & Grub,Lorraine's Pub & Grub Walker,,,8837 Florida Blvd,,United States,US,,,Louisiana,LA,Walker,,,,70785,,,(225) 380-5244,,,,,12/31/2050,Active,Silver,Restaurants->Burgers,Nightlife->Bars->Sports Bars,Restaurants->Pizza,,,New Listing Template,,,,,,,,,,,,,,,,
"Double ""D"" Daiquiris","Double ""D"" Daiquiris Denham Springs",,,32334 La Hwy 16,,United States,US,,,Louisiana,LA,Denham Springs,,,,70726,,,(225) 243-5688,,,,,12/31/2050,Active,Silver,Restaurants->Barbeque,Nightlife->Bars->Lounges,Nightlife->Bars->Cocktail Bars,,,New Listing Template,,,,,,,,,,,,,,,,
Plush Bar & Grill,Plush Bar & Grill Baton Rouge,,,4250 Burbank Dr,,United States,US,,,Louisiana,LA,Baton Rouge,,,,70808,,,,,,,,12/31/2050,Active,Silver,Nightlife->Bars,Restaurants->Seafood,Restaurants->Cajun/Creole,,,New Listing Template,,,,,,,,,,,,,,,,
Hooters,Hooters Baton Rouge,,,6454 Siegen Ln,,United States,US,,,Louisiana,LA,Baton Rouge,,,,70809,,,(225) 293-1900,,,,,12/31/2050,Active,Silver,Nightlife->Bars->Sports Bars,Restaurants->American,Restaurants->Chicken Wings,,,New Listing Template,,,,,,,,,,,,,,,,
Sporting News Grill,Sporting News Grill Baton Rouge,,,4848 Constitution Ave,,United States,US,,,Louisiana,LA,Baton Rouge,,,,70808,,,(225) 636-5347,,,,,12/31/2050,Active,Silver,Nightlife->Bars->Pubs,Restaurants->American,Nightlife->Bars->Sports Bars,,,New Listing Template,,,,,,,,,,,,,,,,
Zippy's Burritos Tacos & More,Zippy's Burritos Tacos & More Baton Rouge,,,3155 Perkins Rd,,United States,US,,,Louisiana,LA,Baton Rouge,,,,70808,,,(225) 388-9000,,,,,12/31/2050,Active,Silver,Restaurants->Tex-Mex,Nightlife->Bars->Sports Bars,,,,New Listing Template,,,,,,,,,,,,,,,,
Palace,Palace Baton Rouge,,,2310 Scenic Hwy,,United States,US,,,Louisiana,LA,Baton Rouge,,,,70802,,,(504) 401-1838,,,,,12/31/2050,Active,Silver,Nightlife->Bars,Restaurants->American,Arts & Entertainment->Music Venues,,,New Listing Template,,,,,,,,,,,,,,,,
"TJ Ribs, Acadian","TJ Ribs, Acadian Baton Rouge",,,2324 S Acadian Thruway,,United States,US,,,Louisiana,LA,Baton Rouge,,,,70808,,,(225) 383-7427,,,,,12/31/2050,Active,Silver,Nightlife->Bars,Restaurants->Seafood,Restaurants->American,,,New Listing Template,,,,,,,,,,,,,,,,
Roy's Daiquiris,Roy's Daiquiris Prairieville,,,38501 Highway 42,,United States,US,,,Louisiana,LA,Prairieville,,,,70769,,,(225) 673-6300,,,,,12/31/2050,Active,Silver,Nightlife->Bars->Lounges,Nightlife->Bars->Cocktail Bars,,,,New Listing Template,,,,,,,,,,,,,,,,
TrickShots Sports Bar,TrickShots Sports Bar Denham Springs,,,6865 Magnolia Beach Rd,,United States,US,,,Louisiana,LA,Denham Springs,,,,70706,,,(225) 667-0205,,,,,12/31/2050,Active,Silver,Nightlife->Bars->Sports Bars,,,,,New Listing Template,,,,,,,,,,,,,,,,
Walk-On’s Sports Bistreaux,Walk-On’s Sports Bistreaux Brusly,,,437 Oak Plaza Blvd,,United States,US,,,Louisiana,LA,Brusly,,,,70719,,,(225) 218-4599,,,,,12/31/2050,Active,Silver,Restaurants->American,Nightlife->Bars->Sports Bars,Restaurants->Cajun/Creole,,,New Listing Template,,,,,,,,,,,,,,,,
Ray's Bar,Ray's Bar Baton Rouge,,,4715 Bennington Ave,,United States,US,,,Louisiana,LA,Baton Rouge,,,,70808,,,(225) 927-3222,,,,,12/31/2050,Active,Silver,Nightlife->Bars,,,,,New Listing Template,,,,,,,,,,,,,,,,
Gameday Daiquiris,Gameday Daiquiris Baton Rouge,,,4525-4599 Bennington Ave,,United States,US,,,Louisiana,LA,Baton Rouge,,,,70808,,,,,,,,12/31/2050,Active,Silver,Nightlife->Bars,,,,,New Listing Template,,,,,,,,,,,,,,,,
Chili's,Chili's Baton Rouge,,,4550 Constitution Ave,,United States,US,,,Louisiana,LA,Baton Rouge,,,,70808,,,(225) 927-0035,,,,,12/31/2050,Active,Silver,Restaurants->American,Nightlife->Bars,Restaurants->Tex-Mex,,,New Listing Template,,,,,,,,,,,,,,,,
Jones Creek Cafe & Oyster Bar,Jones Creek Cafe & Oyster Bar Baton Rouge,,,15005 Market St,,United States,US,,,Louisiana,LA,Baton Rouge,,,,70817,,,(225) 755-3550,,,,,12/31/2050,Active,Silver,Restaurants->Seafood,Nightlife->Bars->Sports Bars,,,,New Listing Template,,,,,,,,,,,,,,,,
Pluckers,Pluckers Baton Rouge,,,4225 Nicholson Dr,,United States,US,,,Louisiana,LA,Baton Rouge,,,,70808,,,(225) 761-9464,,,,,12/31/2050,Active,Silver,Restaurants->Chicken Wings,Nightlife->Bars->Sports Bars,,,,New Listing Template,,,,,,,,,,,,,,,,
Diamondz Sports Bar & Lounge,Diamondz Sports Bar & Lounge Baton Rouge,,,6046 Airline Hwy,,United States,US,,,Louisiana,LA,Baton Rouge,,,,70805,,,,,,,,12/31/2050,Active,Silver,Nightlife->Bars->Sports Bars,,,,,New Listing Template,,,,,,,,,,,,,,,,
Walk-On's Sports Bistreaux - Burbank Restaurant,Walk-On's Sports Bistreaux - Burbank Restaurant Baton Rouge,,,3838 Burbank Dr,,United States,US,,,Louisiana,LA,Baton Rouge,,,,70808,,,(225) 757-8010,,,,,12/31/2050,Active,Silver,Restaurants->American,Nightlife->Bars->Sports Bars,Restaurants->Cajun/Creole,,,New Listing Template,,,,,,,,,,,,,,,,
Uncle Moe's Food Mart & Deli,Uncle Moe's Food Mart & Deli Baton Rouge,,,5557 Plank Rd,,United States,US,,,Louisiana,LA,Baton Rouge,,,,70805,,,(225) 771-8936,,,,,12/31/2050,Active,Silver,Restaurants->Burgers,Restaurants->Greek,Nightlife->Bars,,,New Listing Template,,,,,,,,,,,,,,,,
New Orleans Original Daiquiris,New Orleans Original Daiquiris Gonzales,,,1006 N Airline Hwy,,United States,US,,,Louisiana,LA,Gonzales,,,,70737,,,(225) 647-6020,,,,,12/31/2050,Active,Silver,Nightlife->Bars,,,,,New Listing Template,,,,,,,,,,,,,,,,
Jl's,Jl's Baton Rouge,,,1115 Bob Pettit Blvd,,United States,US,,,Louisiana,LA,Baton Rouge,,,,70820,,,(225) 765-7557,,,,,12/31/2050,Active,Silver,Nightlife->Bars->Sports Bars,,,,,New Listing Template,,,,,,,,,,,,,,,,
Walk-On's Sports Bistreaux - Prairieville Restaurant,Walk-On's Sports Bistreaux - Prairieville Restaurant Gonzales,,,14569 Airline Hwy,,United States,US,,,Louisiana,LA,Gonzales,,,,70737,,,(225) 673-9255,,,,,12/31/2050,Active,Silver,Restaurants->American,Restaurants->Cajun/Creole,Nightlife->Bars->Sports Bars,,,New Listing Template,,,,,,,,,,,,,,,,
Coleman's Daiquiri & Liquor,Coleman's Daiquiri & Liquor Baton Rouge,,,1472 Harding Blvd,,United States,US,,,Louisiana,LA,Baton Rouge,,,,70807,,,(225) 218-6750,,,,,12/31/2050,Active,Silver,Nightlife->Bars->Sports Bars,Nightlife->Bars->Cocktail Bars,,,,New Listing Template,,,,,,,,,,,,,,,,
The Pit Sports Bar & Daiquiris,The Pit Sports Bar & Daiquiris Saint Gabriel,,,3495C Hwy 75,,United States,US,,,Louisiana,LA,Saint Gabriel,,,,70776,,,(225) 319-2243,,,,,12/31/2050,Active,Silver,Nightlife->Bars->Sports Bars,Restaurants->Pizza,,,,New Listing Template,,,,,,,,,,,,,,,,
Devics Bar Baton Rouge,Devics Bar Baton Rouge Baton Rouge,,,2854 Kalurah St,,United States,US,,,Louisiana,LA,Baton Rouge,,,,70808,,,,,,,,12/31/2050,Active,Silver,Nightlife->Bars,,,,,New Listing Template,,,,,,,,,,,,,,,,
Great American Grill,Great American Grill Baton Rouge,,,3330 Harding Blvd,,United States,US,,,Louisiana,LA,Baton Rouge,,,,70807,,,(225) 357-6177,,,,,12/31/2050,Active,Silver,Nightlife->Bars->Cocktail Bars,Restaurants->Cajun/Creole,Restaurants->American,,,New Listing Template,,,,,,,,,,,,,,,,
On the Half Shell,On the Half Shell Prairieville,,,37390 Perkins Rd,,United States,US,,,Louisiana,LA,Prairieville,,,,70769,,,(225) 673-1951,,,,,12/31/2050,Active,Silver,Restaurants->Seafood,Restaurants->Breakfast & Brunch,Nightlife->Bars->Cocktail Bars,,,New Listing Template,,,,,,,,,,,,,,,,
Hooters,Hooters Denham Springs,,,254 Range 12 Blvd,,United States,US,,,Louisiana,LA,Denham Springs,,,,70726,,,(225) 243-7962,,,,,12/31/2050,Active,Silver,Nightlife->Bars->Sports Bars,Restaurants->American,Restaurants->Chicken Wings,,,New Listing Template,,,,,,,,,,,,,,,,
Chili's,Chili's Baton Rouge,,,1615 Millerville Rd,,United States,US,,,Louisiana,LA,Baton Rouge,,,,70816,,,(225) 275-0749,,,,,12/31/2050,Active,Silver,Restaurants->Tex-Mex,Restaurants->American,Nightlife->Bars,,,New Listing Template,,,,,,,,,,,,,,,,
Buffalo Wild Wings,Buffalo Wild Wings Baton Rouge,,,3260 Highland Road 2 & 3,,United States,US,,,Louisiana,LA,Baton Rouge,,,,70802,,,(225) 448-5770,,,,,12/31/2050,Active,Silver,Restaurants->Chicken Wings,Restaurants->American,Nightlife->Bars->Sports Bars,,,New Listing Template,,,,,,,,,,,,,,,,
Smack-a-Roos Sports Bar & Grill,Smack-a-Roos Sports Bar & Grill Plaquemine,,,22930 hwy 1,,United States,US,,,Louisiana,LA,Plaquemine,,,,70764,,,(225) 385-1535,,,,,12/31/2050,Active,Silver,Nightlife->Bars->Sports Bars,Restaurants->Seafood,Restaurants->Chicken Wings,,,New Listing Template,,,,,,,,,,,,,,,,
Chili's,Chili's Denham Springs,,,135 Rushing Rd W,,United States,US,,,Louisiana,LA,Denham Springs,,,,70726,,,(225) 667-7151,,,,,12/31/2050,Active,Silver,Restaurants->Tex-Mex,Restaurants->American,Nightlife->Bars,,,New Listing Template,,,,,,,,,,,,,,,,
Death Valley Daiquiri,Death Valley Daiquiri Baton Rouge,,,5201 Nicholson Dr,,United States,US,,,Louisiana,LA,Baton Rouge,,,,70820,,,,,,,,12/31/2050,Active,Silver,Nightlife->Bars,,,,,New Listing Template,,,,,,,,,,,,,,,,
Grown Vibes Lounge & Grill,Grown Vibes Lounge & Grill Baton Rouge,,,1962 O'Neal Ln,,United States,US,,,Louisiana,LA,Baton Rouge,,,,70816,,,(225) 326-3743,,,,,12/31/2050,Active,Silver,Nightlife->Bars->Lounges,Nightlife->Bars->Beer Bar,,,,New Listing Template,,,,,,,,,,,,,,,,
City Slice Pizza & Pints,City Slice Pizza & Pints Baton Rouge,,,124 W Chimes St,,United States,US,,,Louisiana,LA,Baton Rouge,,,,70802,,,(225) 388-5454,,,,,12/31/2050,Active,Silver,Restaurants->Chicken Wings,Restaurants->Pizza,Nightlife->Bars->Beer Bar,,,New Listing Template,,,,,,,,,,,,,,,,
Luke Tant,Luke Tant Baton Rouge,,,3347 Highland Rd,,United States,US,,,Louisiana,LA,Baton Rouge,,,,70802,,,,,,,,12/31/2050,Active,Silver,Nightlife->Bars->Sports Bars,Nightlife->Bars->Beer Bar,,,,New Listing Template,,,,,,,,,,,,,,,,
Gnarly Barley Brewing,Gnarly Barley Brewing Hammond,,,1709 Corbin Rd,,United States,US,,,Louisiana,LA,Hammond,,,,70403,,,(985) 318-0723,,,,,12/31/2050,Active,Silver,Food->Breweries,Hotels & Travel->Tours->Beer Tours,Nightlife->Beer Gardens,,,New Listing Template,,,,,,,,,,,,,,,,
Low Road Brewing,Low Road Brewing Hammond,,,1110 C M Fagan Dr,,United States,US,,,Louisiana,LA,Hammond,,,,70403,,,(985) 602-1188,,,,,12/31/2050,Active,Silver,Food->Breweries,Nightlife->Bars->Beer Bar,Nightlife->Beer Gardens,,,New Listing Template,,,,,,,,,,,,,,,,
Black Dog Cigar,Black Dog Cigar New Iberia,,,842 West Main St,,United States,US,,,Louisiana,LA,New Iberia,,,,70560,,,(337) 366-5321,,,,,12/31/2050,Active,Silver,Shopping->Tobacco Shops,Nightlife->Bars->Cigar Bars,,,,New Listing Template,,,,,,,,,,,,,,,,
Cigar Club,Cigar Club LaPlace,,,701 W Airline Hwy,,United States,US,,,Louisiana,LA,LaPlace,,,,70068,,,,,,,,12/31/2050,Active,Silver,Nightlife->Bars->Cigar Bars,,,,,New Listing Template,,,,,,,,,,,,,,,,
Paradise Cigars and Tobacco,Paradise Cigars and Tobacco Gonzales,,,719 S Burnside Ave,,United States,US,,,Louisiana,LA,Gonzales,,,,70737,,,(225) 390-1236,,,,,12/31/2050,Active,Silver,Nightlife->Bars->Cigar Bars,,,,,New Listing Template,,,,,,,,,,,,,,,,
Jack's Place,Jack's Place Port Allen,,,102 S Jefferson Ave,,United States,US,,,Louisiana,LA,Port Allen,,,,70767,,,(225) 344-5567,,,,,12/31/2050,Active,Silver,Nightlife,,,,,New Listing Template,,,,,,,,,,,,,,,,
Rockstar Singing Telegrams,Rockstar Singing Telegrams Baton Rouge,,,,,United States,US,,,Louisiana,LA,Baton Rouge,,,,70802,,,(866) 979-7625,,,,,12/31/2050,Active,Silver,Nightlife->Karaoke,,,,,New Listing Template,,,,,,,,,,,,,,,,
Baby 4,Baby 4 Baton Rouge,,,,,United States,US,,,Louisiana,LA,Baton Rouge,,,,70815,,,(225) 933-0148,,,,,12/31/2050,Active,Silver,Arts & Entertainment->Music Venues,,,,,New Listing Template,,,,,,,,,,,,,,,,
Red Stick Music,Red Stick Music Baton Rouge,,,,,United States,US,,,Louisiana,LA,Baton Rouge,,,,70806,,,(225) 953-1727,,,,,12/31/2050,Active,Silver,Event Planning & Services->Musicians,Arts & Entertainment->Music Venues,,,,New Listing Template,,,,,,,,,,,,,,,,
Raising Cane's River Center,Raising Cane's River Center Baton Rouge,,,275 S River Rd,,United States,US,,,Louisiana,LA,Baton Rouge,,,,70802,,,(225) 389-3030,,,,,12/31/2050,Active,Silver,Arts & Entertainment->Music Venues,Event Planning & Services->Venues & Event Spaces,,,,New Listing Template,,,,,,,,,,,,,,,,
Ivar's Sports Bar & Grill,Ivar's Sports Bar & Grill Baton Rouge,,,2954 Perkins Rd,,United States,US,,,Louisiana,LA,Baton Rouge,,,,70808,,,(225) 388-0021,,,,,12/31/2050,Active,Silver,Nightlife->Bars->Sports Bars,Restaurants->Chicken Wings,Restaurants->American,,,New Listing Template,,,,,,,,,,,,,,,,
The Tunnel,The Tunnel Baton Rouge,,,201 Lafayette St,,United States,US,,,Louisiana,LA,Baton Rouge,,,,70801,,,(225) 906-5763,,,,,12/31/2050,Active,Silver,Nightlife->Bars->Speakeasies,Nightlife->Bars->Cocktail Bars,,,,New Listing Template,,,,,,,,,,,,,,,,
Tropical Lounge,Tropical Lounge Baton Rouge,,,10455 Rieger Rd,,United States,US,,,Louisiana,LA,Baton Rouge,,,,70809,,,(203) 510-9738,,,,,12/31/2050,Active,Silver,Nightlife->Dance Clubs,Nightlife->Bars->Lounges,,,,New Listing Template,,,,,,,,,,,,,,,,
Bella Noche,Bella Noche Baton Rouge,,,8190 Plank Rd,,United States,US,,,Louisiana,LA,Baton Rouge,,,,70811,,,(225) 916-2827,,,,,12/31/2050,Active,Silver,Nightlife->Dance Clubs,,,,,New Listing Template,,,,,,,,,,,,,,,,
Patio Lounge,Patio Lounge Baton Rouge,,,8743 Jefferson Hwy,,United States,US,,,Louisiana,LA,Baton Rouge,,,,70809,,,(225) 924-2450,,,,,12/31/2050,Active,Silver,Nightlife->Bars->Pubs,Nightlife->Bars->Lounges,Nightlife->Bars->Dive Bars,,,New Listing Template,,,,,,,,,,,,,,,,
SKY LOUNGE,SKY LOUNGE Baton Rouge,,,4564 Bennington Ave,,United States,US,,,Louisiana,LA,Baton Rouge,,,,70808,,,(225) 960-1526,,,,,12/31/2050,Active,Silver,Nightlife->Bars->Lounges,Restaurants->Southern,Nightlife->Bars->Cocktail Bars,,,New Listing Template,,,,,,,,,,,,,,,,
Backstreet Lounge,Backstreet Lounge Baton Rouge,,,845 Madeline Ct,,United States,US,,,Louisiana,LA,Baton Rouge,,,,70815,,,(225) 923-3775,,,,,12/31/2050,Active,Silver,Nightlife->Bars->Pubs,Nightlife->Karaoke,,,,New Listing Template,,,,,,,,,,,,,,,,
BR.cade,BR.cade Baton Rouge,,,2963 Government St,,United States,US,,,Louisiana,LA,Baton Rouge,,,,70806,,,,,,,,12/31/2050,Active,Silver,Nightlife->Bars,Arts & Entertainment->Arcades,,,,New Listing Template,,,,,,,,,,,,,,,,
The River Room,The River Room Baton Rouge,,,222 Laurel St,,United States,US,,,Louisiana,LA,Baton Rouge,,,,70801,,,(225) 400-9627,,,,,12/31/2050,Active,Silver,Nightlife->Bars->Lounges,Nightlife->Bars->Wine Bars,,,,New Listing Template,,,,,,,,,,,,,,,,
Hayride Scandal,Hayride Scandal Baton Rouge,,,5110 Corporate Blvd,,United States,US,,,Louisiana,LA,Baton Rouge,,,,70808,,,(225) 400-9677,,,,,12/31/2050,Active,Silver,Nightlife->Bars->Cocktail Bars,Nightlife->Bars->Whiskey Bars,,,,New Listing Template,,,,,,,,,,,,,,,,
Radio Bar,Radio Bar Baton Rouge,,,3079 Government St,,United States,US,,,Louisiana,LA,Baton Rouge,,,,70806,,,(225) 810-6487,,,,,12/31/2050,Active,Silver,Nightlife->Bars,,,,,New Listing Template,,,,,,,,,,,,,,,,
Royal Hookah Lounge & Bar,Royal Hookah Lounge & Bar Baton Rouge,,,5830 S Sherwood Forest Blvd,,United States,US,,,Louisiana,LA,Baton Rouge,,,,70816,,,(225) 465-3830,,,,,12/31/2050,Active,Silver,Nightlife->Bars->Hookah Bars,,,,,New Listing Template,,,,,,,,,,,,,,,,
Silly Rabbit Comedy Club,Silly Rabbit Comedy Club Baton Rouge,,,9945 Airline Hwy,,United States,US,,,Louisiana,LA,Baton Rouge,,,,70816,,,(225) 278-7107,,,,,12/31/2050,Active,Silver,Nightlife->Comedy Clubs,Nightlife->Karaoke,,,,New Listing Template,,,,,,,,,,,,,,,,
The R&B Cocktail Lounge,The R&B Cocktail Lounge Baton Rouge,,,3151 College Dr,,United States,US,,,Louisiana,LA,Baton Rouge,,,,70808,,,(225) 223-6385,,,,,12/31/2050,Active,Silver,Nightlife->Bars->Cocktail Bars,,,,,New Listing Template,,,,,,,,,,,,,,,,
Olive Or Twist,Olive Or Twist Baton Rouge,,,7248 Perkins Rd,,United States,US,,,Louisiana,LA,Baton Rouge,,,,70810,,,(225) 456-2188,,,,,12/31/2050,Active,Silver,Restaurants->New American,Restaurants->Southern,Nightlife->Bars->Cocktail Bars,,,New Listing Template,,,,,,,,,,,,,,,,
Mother’s Lounge,Mother’s Lounge Baton Rouge,,,143 3rd St,,United States,US,,,Louisiana,LA,Baton Rouge,,,,70801,,,(225) 256-4438,,,,,12/31/2050,Active,Silver,Nightlife->Bars->Gay Bars,Event Planning & Services->Venues & Event Spaces,,,,New Listing Template,,,,,,,,,,,,,,,,
LA Threaux,LA Threaux Gonzales,,,39359 Airline Plaza Pl,,United States,US,,,Louisiana,LA,Gonzales,,,,70737,,,(225) 647-7302,,,,,12/31/2050,Active,Silver,Active Life->Axe Throwing,Nightlife,Arts & Entertainment,,,New Listing Template,,,,,,,,,,,,,,,,
Dark 30,Dark 30 Baton Rouge,,,151 3rd St,,United States,US,,,Louisiana,LA,Baton Rouge,,,,70802,,,,,,,,12/31/2050,Active,Silver,Nightlife->Bars,,,,,New Listing Template,,,,,,,,,,,,,,,,
The Bulldog,The Bulldog Baton Rouge,,,4385 Perkins Rd,,United States,US,,,Louisiana,LA,Baton Rouge,,,,70808,,,(225) 303-9400,,,,,12/31/2050,Active,Silver,Nightlife->Bars->Sports Bars,Restaurants->Burgers,Restaurants->Sandwiches,,,New Listing Template,,,,,,,,,,,,,,,,
Coop's on 621,Coop's on 621 Gonzales,,,38058 Hwy 621,,United States,US,,,Louisiana,LA,Gonzales,,,,70737,,,(225) 313-3008,,,,,12/31/2050,Active,Silver,Nightlife->Bars,,,,,New Listing Template,,,,,,,,,,,,,,,,
Fred's in Tigerland,Fred's in Tigerland Baton Rouge,,,1184 Bob Pettit Blvd,,United States,US,,,Louisiana,LA,Baton Rouge,,,,70820,,,(225) 478-2345,,,,,12/31/2050,Active,Silver,Nightlife->Dance Clubs,Nightlife->Bars->Sports Bars,Arts & Entertainment->Music Venues,,,New Listing Template,,,,,,,,,,,,,,,,
The Main Lobby,The Main Lobby Baton Rouge,,,668 Main St,,United States,US,,,Louisiana,LA,Baton Rouge,,,,70801,,,(225) 444-5939,,,,,12/31/2050,Active,Silver,Nightlife->Bars->Cocktail Bars,,,,,New Listing Template,,,,,,,,,,,,,,,,
City Bar Baton Rouge,City Bar Baton Rouge Baton Rouge,,,333 3rd St,,United States,US,,,Louisiana,LA,Baton Rouge,,,,70801,,,(225) 223-9622,,,,,12/31/2050,Active,Silver,Nightlife->Bars,Nightlife->Dance Clubs,,,,New Listing Template,,,,,,,,,,,,,,,,
The Jefferson Lounge,The Jefferson Lounge Baton Rouge,,,4336 Floynell Dr,,United States,US,,,Louisiana,LA,Baton Rouge,,,,70809,,,(225) 291-6773,,,,,12/31/2050,Active,Silver,Nightlife->Bars->Dive Bars,,,,,New Listing Template,,,,,,,,,,,,,,,,
The Vineyard,The Vineyard Baton Rouge,,,11914 Coursey Blvd,,United States,US,,,Louisiana,LA,Baton Rouge,,,,70816,,,,,,,,12/31/2050,Active,Silver,Restaurants,Nightlife->Bars->Dive Bars,,,,New Listing Template,,,,,,,,,,,,,,,,
Dead Poet,Dead Poet Baton Rouge,,,623 E Boyd Dr,,United States,US,,,Louisiana,LA,Baton Rouge,,,,70808,,,(225) 666-2010,,,,,12/31/2050,Active,Silver,Nightlife->Bars,Arts & Entertainment->Music Venues,,,,New Listing Template,,,,,,,,,,,,,,,,
Tiger Tavern,Tiger Tavern Gonzales,,,14505 Hwy 44,,United States,US,,,Louisiana,LA,Gonzales,,,,70737,,,(225) 622-3719,,,,,12/31/2050,Active,Silver,Nightlife->Bars->Sports Bars,,,,,New Listing Template,,,,,,,,,,,,,,,,
Bianka Restaurants & Lounge,Bianka Restaurants & Lounge Baton Rouge,,,11575 Coursey Blvd,,United States,US,,,Louisiana,LA,Baton Rouge,,,,70816,,,(225) 408-8206,,,,,12/31/2050,Active,Silver,Nightlife->Bars->Hookah Bars,Restaurants->Soup,Nightlife->Bars->Cocktail Bars,,,New Listing Template,,,,,,,,,,,,,,,,
Big D's Daiquiris,Big D's Daiquiris Denham Springs,,,30614 La Hwy 16,,United States,US,,,Louisiana,LA,Denham Springs,,,,70726,,,(225) 665-3309,,,,,12/31/2050,Active,Silver,Nightlife->Bars->Sports Bars,,,,,New Listing Template,,,,,,,,,,,,,,,,
Bayou Bar,Bayou Bar Gonzales,,,12496 Airline Hwy,,United States,US,,,Louisiana,LA,Gonzales,,,,70737,,,(225) 644-2327,,,,,12/31/2050,Active,Silver,Nightlife->Bars->Dive Bars,,,,,New Listing Template,,,,,,,,,,,,,,,,
Boomerang Comedy Theater,Boomerang Comedy Theater Baton Rouge,,,455 Hearthstone Dr,,United States,US,,,Louisiana,LA,Baton Rouge,,,,70806,,,(706) 504-1732,,,,,12/31/2050,Active,Silver,Nightlife->Comedy Clubs,Arts & Entertainment->Performing Arts,,,,New Listing Template,,,,,,,,,,,,,,,,
The Colonel’s Club,The Colonel’s Club Baton Rouge,,,2857 Perkins Rd,,United States,US,,,Louisiana,LA,Baton Rouge,,,,70808,,,(225) 381-1514,,,,,12/31/2050,Active,Silver,Restaurants->American,Nightlife->Bars,Restaurants->Breakfast & Brunch,,,New Listing Template,,,,,,,,,,,,,,,,
Mike's In Tigerland,Mike's In Tigerland Baton Rouge,,,1125 Bob Petit,,United States,US,,,Louisiana,LA,Baton Rouge,,,,70820,,,(225) 448-2524,,,,,12/31/2050,Active,Silver,Nightlife->Bars->Sports Bars,,,,,New Listing Template,,,,,,,,,,,,,,,,
The Fat Cat Saloon,The Fat Cat Saloon Prairieville,,,17326 Airline Hwy,,United States,US,,,Louisiana,LA,Prairieville,,,,70769,,,(225) 673-9826,,,,,12/31/2050,Active,Silver,Nightlife->Bars,,,,,New Listing Template,,,,,,,,,,,,,,,,
Pelican to Mars: Pet Friendly Bar,Pelican to Mars: Pet Friendly Bar Baton Rouge,,,2678 Government St,,United States,US,,,Louisiana,LA,Baton Rouge,,,,70806,,,(225) 726-7142,,,,,12/31/2050,Active,Silver,Nightlife->Bars->Cocktail Bars,Nightlife->Bars->Beer Bar,Food->Food Trucks,,,New Listing Template,,,,,,,,,,,,,,,,
The Vintage,The Vintage Baton Rouge,,,333 Laurel St,,United States,US,,,Louisiana,LA,Baton Rouge,,,,70802,,,(225) 444-5799,,,,,12/31/2050,Active,Silver,Restaurants->Cafes,Nightlife->Bars->Wine Bars,Nightlife->Bars->Cocktail Bars,,,New Listing Template,,,,,,,,,,,,,,,,
Club Raggs,Club Raggs Baton Rouge,,,2605 Plank Rd,,United States,US,,,Louisiana,LA,Baton Rouge,,,,70805,,,(225) 355-5557,,,,,12/31/2050,Active,Silver,Nightlife->Bars,,,,,New Listing Template,,,,,,,,,,,,,,,,
Topgolf,Topgolf Baton Rouge,,,10955 N Mall Dr,,United States,US,,,Louisiana,LA,Baton Rouge,,,,70809,,,(225) 372-3725,,,,,12/31/2050,Active,Silver,Active Life->Golf,Restaurants->New American,Nightlife->Bars->Sports Bars,,,New Listing Template,,,,,,,,,,,,,,,,
Dreams,Dreams Baton Rouge,,,2083 Dallas Dr,,United States,US,,,Louisiana,LA,Baton Rouge,,,,70806,,,(225) 926-1720,,,,,12/31/2050,Active,Silver,Nightlife,,,,,New Listing Template,,,,,,,,,,,,,,,,
Bogie's Bar,Bogie's Bar Baton Rouge,,,705 E Boyd Dr,,United States,US,,,Louisiana,LA,Baton Rouge,,,,70808,,,(225) 256-4024,,,,,12/31/2050,Active,Silver,Nightlife->Bars->Dive Bars,,,,,New Listing Template,,,,,,,,,,,,,,,,
Laguna Beach Daiquiris,Laguna Beach Daiquiris Denham Springs,,,8028 Florida Blvd,,United States,US,,,Louisiana,LA,Denham Springs,,,,70726,,,(225) 667-3738,,,,,12/31/2050,Active,Silver,Nightlife->Bars,Nightlife->Pool Halls,Nightlife->Karaoke,,,New Listing Template,,,,,,,,,,,,,,,,
Uncle Earl's ,Uncle Earl's  Baton Rouge,,,3753 Perkins Rd,,United States,US,,,Louisiana,LA,Baton Rouge,,,,70808,,,(225) 256-2531,,,,,12/31/2050,Active,Silver,Nightlife->Bars,Event Planning & Services->Venues & Event Spaces,,,,New Listing Template,,,,,,,,,,,,,,,,
13 social,13 social Baton Rouge,,,350 3rd St,,United States,US,,,Louisiana,LA,Baton Rouge,,,,70801,,,,,,,,12/31/2050,Active,Silver,Nightlife->Bars,,,,,New Listing Template,,,,,,,,,,,,,,,,
Mid City Beer Garden,Mid City Beer Garden Baton Rouge,,,3808 Government St,,United States,US,,,Louisiana,LA,Baton Rouge,,,,70806,,,(225) 910-8169,,,,,12/31/2050,Active,Silver,Nightlife->Beer Gardens,,,,,New Listing Template,,,,,,,,,,,,,,,,
Edge,Edge Baton Rouge,,,777 Lauberge Ave,,United States,US,,,Louisiana,LA,Baton Rouge,,,,70820,,,(866) 261-7777,,,,,12/31/2050,Active,Silver,Nightlife->Bars,Nightlife->Karaoke,,,,New Listing Template,,,,,,,,,,,,,,,,
Jubans Restaurant and Bar,Jubans Restaurant and Bar Baton Rouge,,,3739 Perkins Rd,,United States,US,,,Louisiana,LA,Baton Rouge,,,,70808,,,(225) 346-8422,,,,,12/31/2050,Active,Silver,Restaurants->Cajun/Creole,Event Planning & Services->Venues & Event Spaces,Nightlife->Bars,,,New Listing Template,,,,,,,,,,,,,,,,
BLDG5,BLDG5 Baton Rouge,,,2805 Kalurah St,,United States,US,,,Louisiana,LA,Baton Rouge,,,,70808,,,(225) 256-2287,,,,,12/31/2050,Active,Silver,Restaurants->New American,Nightlife->Bars->Cocktail Bars,Event Planning & Services->Venues & Event Spaces,,,New Listing Template,,,,,,,,,,,,,,,,
Passé,Passé Baton Rouge,,,101 St Ferdinand St,,United States,US,,,Louisiana,LA,Baton Rouge,,,,70802,,,(225) 224-0022,,,,,12/31/2050,Active,Silver,Nightlife->Bars,Restaurants->Cajun/Creole,Restaurants->Breakfast & Brunch,,,New Listing Template,,,,,,,,,,,,,,,,
Varsity Theatre,Varsity Theatre Baton Rouge,,,3353 Highland Rd,,United States,US,,,Louisiana,LA,Baton Rouge,,,,70802,,,(225) 383-7018,,,,,12/31/2050,Active,Silver,Event Planning & Services->Venues & Event Spaces,Arts & Entertainment->Music Venues,,,,New Listing Template,,,,,,,,,,,,,,,,
Bin 77 Bistro & SideBar,Bin 77 Bistro & SideBar Baton Rouge,,,10111 Perkins Rd,,United States,US,,,Louisiana,LA,Baton Rouge,,,,70810,,,(225) 763-2288,,,,,12/31/2050,Active,Silver,Restaurants->Tapas/Small Plates,Nightlife->Bars->Wine Bars,Restaurants->French,,,New Listing Template,,,,,,,,,,,,,,,,
The Beer Vault,The Beer Vault Denham Springs,,,23610 LA Hwy 16,,United States,US,,,Louisiana,LA,Denham Springs,,,,70726,,,(225) 503-8474,,,,,12/31/2050,Active,Silver,Nightlife->Bars->Sports Bars,Nightlife->Bars->Whiskey Bars,Nightlife->Bars->Cocktail Bars,,,New Listing Template,,,,,,,,,,,,,,,,
George's Place,George's Place Baton Rouge,,,860 Saint Louis St,,United States,US,,,Louisiana,LA,Baton Rouge,,,,70802,,,(225) 387-9798,,,,,12/31/2050,Active,Silver,Nightlife->Bars->Gay Bars,,,,,New Listing Template,,,,,,,,,,,,,,,,
Big Dog Saloon,Big Dog Saloon Denham Springs,,,7857 Florida Blvd,,United States,US,,,Louisiana,LA,Denham Springs,,,,70726,,,(225) 998-1920,,,,,12/31/2050,Active,Silver,Nightlife->Bars->Sports Bars,,,,,New Listing Template,,,,,,,,,,,,,,,,
Red Stick Social,Red Stick Social Baton Rouge,,,1503 Government St,,United States,US,,,Louisiana,LA,Baton Rouge,,,,70802,,,(225) 223-6637,,,,,12/31/2050,Active,Silver,Restaurants->American,Active Life->Bowling,Arts & Entertainment->Music Venues,,,New Listing Template,,,,,,,,,,,,,,,,
Beer Bellys,Beer Bellys Plaquemine,,,57945 Main St,,United States,US,,,Louisiana,LA,Plaquemine,,,,70764,,,(225) 238-2327,,,,,12/31/2050,Active,Silver,Nightlife->Bars->Sports Bars,,,,,New Listing Template,,,,,,,,,,,,,,,,
225 Crab Seafood & Bar,225 Crab Seafood & Bar Baton Rouge,,,5252 S Sherwood Forest Blvd,,United States,US,,,Louisiana,LA,Baton Rouge,,,,70816,,,(225) 250-5333,,,,,12/31/2050,Active,Silver,Restaurants->Seafood,Restaurants->Burgers,Nightlife->Bars->Cocktail Bars,,,New Listing Template,,,,,,,,,,,,,,,,
End-Zone Daiquiri & Bar,End-Zone Daiquiri & Bar Baton Rouge,,,6224 Plank Rd,,United States,US,,,Louisiana,LA,Baton Rouge,,,,70805,,,(225) 355-5010,,,,,12/31/2050,Active,Silver,Nightlife->Bars,,,,,New Listing Template,,,,,,,,,,,,,,,,
Bengal Tap Room,Bengal Tap Room Baton Rouge,,,421 3rd St,,United States,US,,,Louisiana,LA,Baton Rouge,,,,70802,,,(225) 778-5479,,,,,12/31/2050,Active,Silver,Nightlife->Bars->Sports Bars,,,,,New Listing Template,,,,,,,,,,,,,,,,
Rocca Pizzeria,Rocca Pizzeria Baton Rouge,,,3897 Government St,,United States,US,,,Louisiana,LA,Baton Rouge,,,,70806,,,(225) 478-1286,,,,,12/31/2050,Active,Silver,Restaurants->Italian,Restaurants->Pizza,Nightlife->Bars->Cocktail Bars,,,New Listing Template,,,,,,,,,,,,,,,,
Side Porch Daiquiris Bar,Side Porch Daiquiris Bar Addis,,,6641 La Highway 1 S,,United States,US,,,Louisiana,LA,Addis,,,,70710,,,(225) 330-4528,,,,,12/31/2050,Active,Silver,Nightlife->Bars,,,,,New Listing Template,,,,,,,,,,,,,,,,
Pizza Art Wine,Pizza Art Wine Baton Rouge,,,7673 Perkins Rd C1,,United States,US,,,Louisiana,LA,Baton Rouge,,,,70810,,,(225) 408-5062,,,,,12/31/2050,Active,Silver,Restaurants->Italian,Restaurants->Pizza,Nightlife->Bars->Wine Bars,,,New Listing Template,,,,,,,,,,,,,,,,
Squeaky Pete's,Squeaky Pete's Baton Rouge,,,326 3rd St,,United States,US,,,Louisiana,LA,Baton Rouge,,,,70801,,,(225) 256-4754,,,,,12/31/2050,Active,Silver,Nightlife->Bars,,,,,New Listing Template,,,,,,,,,,,,,,,,
Prince Smoke Shop,Prince Smoke Shop Baton Rouge,,,9600 Florida Blvd,,United States,US,,,Louisiana,LA,Baton Rouge,,,,70815,,,(318) 421-9296,,,,,12/31/2050,Active,Silver,Shopping->Vape Shops,Nightlife->Bars->Cigar Bars,Shopping->Head Shops,,,New Listing Template,,,,,,,,,,,,,,,,
Churchill's,Churchill's Baton Rouge,,,2561 Citiplace Ct,,United States,US,,,Louisiana,LA,Baton Rouge,,,,70808,,,(225) 927-4211,,,,,12/31/2050,Active,Silver,Nightlife->Bars->Wine Bars,Nightlife->Bars->Cigar Bars,Restaurants->American,,,New Listing Template,,,,,,,,,,,,,,,,
Drew & Willie's Sports Bar,Drew & Willie's Sports Bar Denham Springs,,,6865 Magnolia Beach Rd,,United States,US,,,Louisiana,LA,Denham Springs,,,,70706,,,(225) 667-0205,,,,,12/31/2050,Active,Silver,Nightlife->Bars->Sports Bars,,,,,New Listing Template,,,,,,,,,,,,,,,,
Solera Bar & Tasting Room,Solera Bar & Tasting Room Baton Rouge,,,4205 Perkins Rd,,United States,US,,,Louisiana,LA,Baton Rouge,,,,70808,,,(225) 256-4192,,,,,12/31/2050,Active,Silver,Restaurants->Tapas Bars,Nightlife->Bars->Wine Bars,Nightlife->Bars->Cocktail Bars,,,New Listing Template,,,,,,,,,,,,,,,,
Brickyard South,Brickyard South Baton Rouge,,,174 S Blvd,,United States,US,,,Louisiana,LA,Baton Rouge,,,,70802,,,(225) 505-8733,,,,,12/31/2050,Active,Silver,Nightlife->Bars,,,,,New Listing Template,,,,,,,,,,,,,,,,
The Bookstore,The Bookstore Baton Rouge,,,10466 Airline Hwy,,United States,US,,,Louisiana,LA,Baton Rouge,,,,70816,,,,,,,,12/31/2050,Active,Silver,Nightlife->Bars->Cocktail Bars,,,,,New Listing Template,,,,,,,,,,,,,,,,
Club Coozan,Club Coozan Baton Rouge,,,10920 Mead Rd,,United States,US,,,Louisiana,LA,Baton Rouge,,,,70816,,,(225) 295-3200,,,,,12/31/2050,Active,Silver,Nightlife->Bars,Nightlife->Dance Clubs,Nightlife->Karaoke,,,New Listing Template,,,,,,,,,,,,,,,,
Club Secret,Club Secret Plaquemine,,,23090 W St,,United States,US,,,Louisiana,LA,Plaquemine,,,,70764,,,,,,,,12/31/2050,Active,Silver,Nightlife->Bars->Pubs,,,,,New Listing Template,,,,,,,,,,,,,,,,
Frankie’s Dawg House,Frankie’s Dawg House Baton Rouge,,,6166 Siegen Ln,,United States,US,,,Louisiana,LA,Baton Rouge,,,,70809,,,,,,,,12/31/2050,Active,Silver,Restaurants->American,Restaurants->Hot Dogs,Restaurants->Diners,,,New Listing Template,,,,,,,,,,,,,,,,
Clicks Billiards,Clicks Billiards Baton Rouge,,,5124 Corporate Blvd,,United States,US,,,Louisiana,LA,Baton Rouge,,,,70808,,,(225) 925-0806,,,,,12/31/2050,Active,Silver,Nightlife->Pool Halls,Nightlife->Bars->Sports Bars,,,,New Listing Template,,,,,,,,,,,,,,,,
Coconut Willy’s Daiquiris,Coconut Willy’s Daiquiris Denham Springs,,,35055 Hwy 16,,United States,US,,,Louisiana,LA,Denham Springs,,,,70726,,,(225) 791-1955,,,,,12/31/2050,Active,Silver,Nightlife->Bars->Beer Bar,,,,,New Listing Template,,,,,,,,,,,,,,,,
Tiger Paw Daiquiris-LSU,Tiger Paw Daiquiris-LSU Baton Rouge,,,5635 Nicholson Dr,,United States,US,,,Louisiana,LA,Baton Rouge,,,,70820,,,(225) 777-6889,,,,,12/31/2050,Active,Silver,Nightlife->Bars,,,,,New Listing Template,,,,,,,,,,,,,,,,
Agave Blue Tequila & Taco Bar,Agave Blue Tequila & Taco Bar Prairieville,,,17097 Airline Hwy,,United States,US,,,Louisiana,LA,Prairieville,,,,70769,,,(225) 313-6376,,,,,12/31/2050,Active,Silver,Nightlife->Bars,Restaurants->Tex-Mex,Restaurants->Mexican->Tacos,,,New Listing Template,,,,,,,,,,,,,,,,
Our Mom's,Our Mom's Baton Rouge,,,250 W Lee Dr,,United States,US,,,Louisiana,LA,Baton Rouge,,,,70820,,,(225) 456-5392,,,,,12/31/2050,Active,Silver,Restaurants->American,Restaurants->Salad,Nightlife->Bars->Cocktail Bars,,,New Listing Template,,,,,,,,,,,,,,,,
Dancers,Dancers Baton Rouge,,,5755 Airline Hwy,,United States,US,,,Louisiana,LA,Baton Rouge,,,,70805,,,(225) 355-6117,,,,,12/31/2050,Active,Silver,Nightlife,,,,,New Listing Template,,,,,,,,,,,,,,,,
Skeeters'lounge,Skeeters'lounge Baton Rouge,,,10763 Old Hammond Hwy,,United States,US,,,Louisiana,LA,Baton Rouge,,,,70816,,,(225) 275-7513,,,,,12/31/2050,Active,Silver,Nightlife,,,,,New Listing Template,,,,,,,,,,,,,,,,
Swamp Shack Daiquiris,Swamp Shack Daiquiris Port Allen,,,812 Lobdell Hwy,,United States,US,,,Louisiana,LA,Port Allen,,,,70767,,,(225) 364-2260,,,,,12/31/2050,Active,Silver,Nightlife->Bars,,,,,New Listing Template,,,,,,,,,,,,,,,,
The Station Sports Bar and Grill,The Station Sports Bar and Grill Baton Rouge,,,4608 Bennington Ave,,United States,US,,,Louisiana,LA,Baton Rouge,,,,70808,,,(225) 926-0631,,,,,12/31/2050,Active,Silver,Nightlife->Bars->Sports Bars,Event Planning & Services->Venues & Event Spaces,Restaurants->American,,,New Listing Template,,,,,,,,,,,,,,,,
Eliza Restaurant & Bar,Eliza Restaurant & Bar Baton Rouge,,,7970 Jefferson Hwy,,United States,US,,,Louisiana,LA,Baton Rouge,,,,70809,,,(225) 349-8895,,,,,12/31/2050,Active,Silver,Nightlife->Bars->Cocktail Bars,Restaurants->Seafood,Restaurants->Southern,,,New Listing Template,,,,,,,,,,,,,,,,
Keilas Bar & Lounge,Keilas Bar & Lounge Baton Rouge,,"An error occurred: HTTPSConnectionPool(host='www.yelp.com', port=443): Max retries exceeded with url: /biz/keilas-bar-and-lounge-baton-rouge (Caused by ConnectTimeoutError(<urllib3.connection.HTTPSConnection object at 0x000002CC534047D0>, 'Connection to www.yelp.com timed out. (connect timeout=None)'))",1533 N Acadian Thruway W,,United States,US,,,Louisiana,LA,Baton Rouge,,,,70802,,,,,,,,12/31/2050,Active,Silver,Nightlife->Bars,,,,,New Listing Template,,,,,,,,,,,,,,,,
Old New Orleans Bar & Grill,Old New Orleans Bar & Grill Baton Rouge,,,648 Lobdell Ave,,United States,US,,,Louisiana,LA,Baton Rouge,,,,70806,,,(225) 926-5044,,,,,12/31/2050,Active,Silver,Nightlife->Bars,,,,,New Listing Template,,,,,,,,,,,,,,,,
Premier Sound Services of Louisiana,Premier Sound Services of Louisiana Baton Rouge,,,3348 Drusilla Ln,,United States,US,,,Louisiana,LA,Baton Rouge,,,,70809,,,(225) 769-3529,,,,,12/31/2050,Active,Silver,Event Planning & Services->DJs,Event Planning & Services->Photo Booth Rentals,Nightlife->Karaoke,,,New Listing Template,,,,,,,,,,,,,,,,
The Lost Cove,The Lost Cove Baton Rouge,,,5625 Essen Ln,,United States,US,,,Louisiana,LA,Baton Rouge,,,,70810,,,(225) 239-7970,,,,,12/31/2050,Active,Silver,Nightlife->Bars->Beer Bar,Nightlife->Bars->Cocktail Bars,,,,New Listing Template,,,,,,,,,,,,,,,,
MID TAP,MID TAP Baton Rouge,,,660 Arlington Creek Centre Blvd,,United States,US,,,Louisiana,LA,Baton Rouge,,,,70820,,,(225) 663-6800,,,,,12/31/2050,Active,Silver,Nightlife->Bars->Beer Bar,Nightlife->Bars->Cocktail Bars,Restaurants->Chicken Wings,,,New Listing Template,,,,,,,,,,,,,,,,
Chengs Restaurant & Bar,Chengs Restaurant & Bar Baton Rouge,,,7951 One Calais Ave,,United States,US,,,Louisiana,LA,Baton Rouge,,,,70809,,,(225) 663-6478,,,,,12/31/2050,Active,Silver,Restaurants->Sushi Bars,Nightlife->Bars,Restaurants->Chinese,,,New Listing Template,,,,,,,,,,,,,,,,
Big Mike's Sports Bar & Grill,Big Mike's Sports Bar & Grill Denham Springs,,,123 Aspen Sq,,United States,US,,,Louisiana,LA,Denham Springs,,,,70726,,,(225) 243-5258,,,,,12/31/2050,Active,Silver,Restaurants->American,Nightlife->Bars->Sports Bars,,,,New Listing Template,,,,,,,,,,,,,,,,
Bald Eagle Pub,Bald Eagle Pub Baton Rouge,,,140 Main St,,United States,US,,,Louisiana,LA,Baton Rouge,,,,70802,,,(225) 366-9782,,,,,12/31/2050,Active,Silver,Nightlife->Bars->Pubs,Nightlife->Bars->Lounges,,,,New Listing Template,,,,,,,,,,,,,,,,
Stogies Cocktail & Cigar Lounge,Stogies Cocktail & Cigar Lounge Denham Springs,,,30614 La Hwy16,,United States,US,,,Louisiana,LA,Denham Springs,,,,70726,,,(225) 271-4377,,,,,12/31/2050,Active,Silver,Nightlife->Bars->Cigar Bars,Nightlife->Bars->Cocktail Bars,,,,New Listing Template,,,,,,,,,,,,,,,,
The Gregory,The Gregory Baton Rouge,,,150 Third St,,United States,US,,,Louisiana,LA,Baton Rouge,,,,70801,,,(225) 408-1800,,,,,12/31/2050,Active,Silver,Nightlife->Bars,Restaurants->New American,,,,New Listing Template,,,,,,,,,,,,,,,,
Green Rabbit Tavern,Green Rabbit Tavern Baton Rouge,,,4612 Bennington Ave,,United States,US,,,Louisiana,LA,Baton Rouge,,,,70808,,,(225) 256-0924,,,,,12/31/2050,Active,Silver,Nightlife->Pool Halls,Nightlife->Bars->Beer Bar,Nightlife->Bars->Cocktail Bars,,,New Listing Template,,,,,,,,,,,,,,,,
The House In Tigerland,The House In Tigerland Baton Rouge,,,1003 Bob Petit Blvd,,United States,US,,,Louisiana,LA,Baton Rouge,,,,70820,,,(225) 389-6162,,,,,12/31/2050,Active,Silver,Nightlife->Bars->Sports Bars,,,,,New Listing Template,,,,,,,,,,,,,,,,
Blend,Blend Baton Rouge,,,304 Laurel St,,United States,US,,,Louisiana,LA,Baton Rouge,,,,70801,,,(225) 757-5645,,,,,12/31/2050,Active,Silver,Nightlife->Bars->Wine Bars,Event Planning & Services->Venues & Event Spaces,,,,New Listing Template,,,,,,,,,,,,,,,,
Paint Remix,Paint Remix Baton Rouge,,,9131 Cortana Pl,,United States,US,,,Louisiana,LA,Baton Rouge,,,,70815,,,(504) 906-9898,,,,,12/31/2050,Active,Silver,Arts & Entertainment->Paint & Sip,Nightlife->Karaoke,Event Planning & Services->Venues & Event Spaces,,,New Listing Template,,,,,,,,,,,,,,,,
Cedarcrest Bar,Cedarcrest Bar Baton Rouge,,,10467 Airline Hwy,,United States,US,,,Louisiana,LA,Baton Rouge,,,,70816,,,(225) 290-1250,,,,,12/31/2050,Active,Silver,Nightlife->Bars->Gay Bars,,,,,New Listing Template,,,,,,,,,,,,,,,,
IceHouse Tap Room,IceHouse Tap Room Baton Rouge,,,14111 Airline Hwy,,United States,US,,,Louisiana,LA,Baton Rouge,,,,70817,,,,,,,,12/31/2050,Active,Silver,Nightlife->Bars->Sports Bars,Restaurants->American,,,,New Listing Template,,,,,,,,,,,,,,,,
Don Juan Cigar Company,Don Juan Cigar Company Baton Rouge,,,7539 Corporate Blvd,,United States,US,,,Louisiana,LA,Baton Rouge,,,,70809,,,(225) 302-5956,,,,,12/31/2050,Active,Silver,Shopping->Tobacco Shops,Nightlife->Bars->Cigar Bars,Nightlife->Bars->Lounges,,,New Listing Template,,,,,,,,,,,,,,,,
Second Story,Second Story Baton Rouge,,,214 3rd St,,United States,US,,,Louisiana,LA,Baton Rouge,,,,70801,,,,,,,,12/31/2050,Active,Silver,Nightlife->Bars->Cocktail Bars,Nightlife->Bars->Lounges,,,,New Listing Template,,,,,,,,,,,,,,,,
Roberto's River Road Restaurant,Roberto's River Road Restaurant Sunshine,,,1985 Hwy 75,,United States,US,,,Louisiana,LA,Sunshine,,,,70780,,,(225) 642-5999,,,,,12/31/2050,Active,Silver,Restaurants->Cajun/Creole,Restaurants->Seafood,Nightlife->Bars,,,New Listing Template,,,,,,,,,,,,,,,,
Blue Corn Tequila & Tacos,Blue Corn Tequila & Tacos Baton Rouge,,,7673 Perkins Rd,,United States,US,,,Louisiana,LA,Baton Rouge,,,,70810,,,(225) 300-4601,,,,,12/31/2050,Active,Silver,Nightlife->Bars,Restaurants->Mexican,Restaurants->Tex-Mex,,,New Listing Template,,,,,,,,,,,,,,,,
BRQ Seafood and Barbeque,BRQ Seafood and Barbeque Baton Rouge,,,10423 Jefferson Hwy,,United States,US,,,Louisiana,LA,Baton Rouge,,,,70809,,,(225) 372-2674,,,,,12/31/2050,Active,Silver,Restaurants->Barbeque,Restaurants->Seafood,Nightlife->Beer Gardens,,,New Listing Template,,,,,,,,,,,,,,,,
Phil Brady's Bar & Grill,Phil Brady's Bar & Grill Baton Rouge,,,4848 Government St,,United States,US,,,Louisiana,LA,Baton Rouge,,,,70806,,,(225) 927-3786,,,,,12/31/2050,Active,Silver,Nightlife->Bars,Restaurants->American,,,,New Listing Template,,,,,,,,,,,,,,,,
Duvic's,Duvic's Baton Rouge,,,2854 Kalurah St,,United States,US,,,Louisiana,LA,Baton Rouge,,,,70808,,,(225) 336-4821,,,,,12/31/2050,Active,Silver,Nightlife->Bars->Dive Bars,,,,,New Listing Template,,,,,,,,,,,,,,,,
Zee Zee's,Zee Zee's Baton Rouge,,,2943 Perkins Rd,,United States,US,,,Louisiana,LA,Baton Rouge,,,,70808,,,(225) 256-5600,,,,,12/31/2050,Active,Silver,Restaurants->American,Nightlife->Bars->Cocktail Bars,,,,New Listing Template,,,,,,,,,,,,,,,,
Tallulah Crafted Food & Wine Bar,Tallulah Crafted Food & Wine Bar Baton Rouge,,,7000 Bluebonnet Blvd,,United States,US,,,Louisiana,LA,Baton Rouge,,,,70810,,,(225) 388-5710,,,,,12/31/2050,Active,Silver,Restaurants->Southern,Nightlife->Bars->Cocktail Bars,Restaurants->Breakfast & Brunch,,,New Listing Template,,,,,,,,,,,,,,,,
The Lighthouse Bar & Pizzeria,The Lighthouse Bar & Pizzeria Baton Rouge,,,8416 Scotland Ave,,United States,US,,,Louisiana,LA,Baton Rouge,,,,70807,,,(225) 400-9828,,,,,12/31/2050,Active,Silver,Nightlife->Bars,Restaurants->Pizza,Restaurants->Salad,,,New Listing Template,,,,,,,,,,,,,,,,
King Bar & Bistro,King Bar & Bistro Baton Rouge,,,200 Convention St,,United States,US,,,Louisiana,LA,Baton Rouge,,,,70801,,,(225) 343-1515,,,,,12/31/2050,Active,Silver,Nightlife->Bars,Restaurants->Breakfast & Brunch,,,,New Listing Template,,,,,,,,,,,,,,,,
Rockstar Singing Telegrams,Rockstar Singing Telegrams Baton Rouge,,,,,United States,US,,,Louisiana,LA,Baton Rouge,,,,70802,,,(866) 979-7625,,,,,12/31/2050,Active,Silver,Nightlife->Karaoke,,,,,New Listing Template,,,,,,,,,,,,,,,,
Chow Yum,Chow Yum Baton Rouge,,,2363 Hollydale Ave,,United States,US,,,Louisiana,LA,Baton Rouge,,,,70808,,,(225) 726-7335,,,,,12/31/2050,Active,Silver,Restaurants->Asian Fusion,Restaurants->Japanese->Ramen,Nightlife->Bars->Cocktail Bars,,,New Listing Template,,,,,,,,,,,,,,,,
The Parlor,The Parlor Baton Rouge,,,705 Saint Joseph St,,United States,US,,,Louisiana,LA,Baton Rouge,,,,70802,,,(615) 293-8190,,,,,12/31/2050,Active,Silver,Home Services->Real Estate->Shared Office Spaces,Arts & Entertainment->Music Venues,,,,New Listing Template,,,,,,,,,,,,,,,,
Nooley's,Nooley's Prairieville,,,17134 LA-44,,United States,US,,,Louisiana,LA,Prairieville,,,,70769,,,(225) 622-2244,,,,,12/31/2050,Active,Silver,Nightlife->Bars->Sports Bars,Restaurants->Chicken Wings,Restaurants->American,,,New Listing Template,,,,,,,,,,,,,,,,
Kenny’s Cue Club & Tavern,Kenny’s Cue Club & Tavern Baton Rouge,,,10627 Alco Ave,,United States,US,,,Louisiana,LA,Baton Rouge,,,,70816,,,(225) 292-9162,,,,,12/31/2050,Active,Silver,Nightlife->Bars->Sports Bars,,,,,New Listing Template,,,,,,,,,,,,,,,,
Spanky's Daiquiris,Spanky's Daiquiris Prairieville,,,17316 Airline Hwy,,United States,US,,,Louisiana,LA,Prairieville,,,,70769,,,(225) 744-3527,,,,,12/31/2050,Active,Silver,Nightlife->Bars->Pubs,,,,,New Listing Template,,,,,,,,,,,,,,,,
City Cafe,City Cafe Baton Rouge,,,4710 O'Neal Ln,,United States,US,,,Louisiana,LA,Baton Rouge,,,,70817,,,(225) 753-4420,,,,,12/31/2050,Active,Silver,Restaurants->Seafood,Nightlife->Bars,Restaurants->American,,,New Listing Template,,,,,,,,,,,,,,,,
Cypress Coast Brewing,Cypress Coast Brewing Baton Rouge,,,5643 Government St,,United States,US,,,Louisiana,LA,Baton Rouge,,,,70806,,,(225) 317-0881,,,,,12/31/2050,Active,Silver,Food->Breweries,Nightlife->Bars->Beer Bar,Nightlife->Beer Gardens,,,New Listing Template,,,,,,,,,,,,,,,,
River Rouge Kitchen & Bar,River Rouge Kitchen & Bar Baton Rouge,,,5500 Hilton Ave,,United States,US,,,Louisiana,LA,Baton Rouge,,,,70808,,,(225) 615-3870,,,,,12/31/2050,Active,Silver,Nightlife->Bars->Wine Bars,Restaurants->Seafood,,,,New Listing Template,,,,,,,,,,,,,,,,
Fat Tuesday,Fat Tuesday Baton Rouge,,,6401 Bluebonnet Blvd,,United States,US,,,Louisiana,LA,Baton Rouge,,,,70810,,,,,,,,12/31/2050,Active,Silver,Nightlife->Bars->Cocktail Bars,,,,,New Listing Template,,,,,,,,,,,,,,,,
Pink Agave,Pink Agave Baton Rouge,,,4001 Nicholson Dr,,United States,US,,,Louisiana,LA,Baton Rouge,,,,70808,,,(225) 256-3937,,,,,12/31/2050,Active,Silver,Restaurants->Mexican,Nightlife->Bars->Cocktail Bars,,,,New Listing Template,,,,,,,,,,,,,,,,
TAP 65,TAP 65 Baton Rouge,,,515 Mouton St,,United States,US,,,Louisiana,LA,Baton Rouge,,,,70806,,,,,,,,12/31/2050,Active,Silver,Nightlife->Bars,Restaurants->Indian,Event Planning & Services->Venues & Event Spaces,,,New Listing Template,,,,,,,,,,,,,,,,
Landry’s 190 Connection,Landry’s 190 Connection Port Allen,,,1822 Plantation Ave,,United States,US,,,Louisiana,LA,Port Allen,,,,70767,,,(225) 246-2490,,,,,12/31/2050,Active,Silver,Nightlife->Bars->Lounges,,,,,New Listing Template,,,,,,,,,,,,,,,,
cocktails and cigar Bar,cocktails and cigar Bar Denham Springs,,,30780 La Highway 16,,United States,US,,,Louisiana,LA,Denham Springs,,,,70726,,,(225) 380-1881,,,,,12/31/2050,Active,Silver,Nightlife->Bars,,,,,New Listing Template,,,,,,,,,,,,,,,,
Capital Park Bar and Grill,Capital Park Bar and Grill Baton Rouge,,,7132 Florida Blvd,,United States,US,,,Louisiana,LA,Baton Rouge,,,,70806,,,(225) 978-7621,,,,,12/31/2050,Active,Silver,Restaurants->Seafood,Nightlife->Bars->Hookah Bars,Nightlife->Karaoke,,,New Listing Template,,,,,,,,,,,,,,,,
The Smiling Dog,The Smiling Dog Baton Rouge,,,4215 South Sherwood Forest Blvd,,United States,US,,,Louisiana,LA,Baton Rouge,,,,70816,,,(225) 361-2491,,,,,12/31/2050,Active,Silver,Nightlife->Bars,,,,,New Listing Template,,,,,,,,,,,,,,,,
Blackie's Place,Blackie's Place Baton Rouge,,,10010 Sullivan Rd,,United States,US,,,Louisiana,LA,Baton Rouge,,,,70818,,,(225) 262-1045,,,,,12/31/2050,Active,Silver,Nightlife,,,,,New Listing Template,,,,,,,,,,,,,,,,
Chimes Restaurant,Chimes Restaurant Baton Rouge,,,3357 Highland Rd,,United States,US,,,Louisiana,LA,Baton Rouge,,,,70802,,,(225) 383-1754,,,,,12/31/2050,Active,Silver,Restaurants->Southern,Restaurants->Cajun/Creole,Nightlife->Bars,,,New Listing Template,,,,,,,,,,,,,,,,
Rickochet Billards,Rickochet Billards Prairieville,,,17540 Airline Hwy,,United States,US,,,Louisiana,LA,Prairieville,,,,70769,,,(225) 313-4008,,,,,12/31/2050,Active,Silver,Nightlife->Pool Halls,,,,,New Listing Template,,,,,,,,,,,,,,,,
Deuce’s Bar and Lounge,Deuce’s Bar and Lounge Baton Rouge,,,3575 N Acadian Thruway,,United States,US,,,Louisiana,LA,Baton Rouge,,,,70805,,,(225) 278-0556,,,,,12/31/2050,Active,Silver,Nightlife->Bars,,,,,New Listing Template,,,,,,,,,,,,,,,,
Comedy Plus Network,Comedy Plus Network Baton Rouge,,,,,United States,US,,,Louisiana,LA,Baton Rouge,,,,70820,,,(818) 720-8565,,,,,12/31/2050,Active,Silver,Arts & Entertainment,Nightlife->Comedy Clubs,Professional Services->Video/Film Production,,,New Listing Template,,,,,,,,,,,,,,,,
The Kingfish Grill,The Kingfish Grill Baton Rouge,,,201 Lafayette St,,United States,US,,,Louisiana,LA,Baton Rouge,,,,70801,,,(225) 344-5866,,,,,12/31/2050,Active,Silver,Nightlife->Bars,Restaurants->New American,Restaurants->Buffets,,,New Listing Template,,,,,,,,,,,,,,,,
X Bio Discotec,X Bio Discotec Baton Rouge,,,11690 Florida Blvd,,United States,US,,,Louisiana,LA,Baton Rouge,,,,70815,,,(225) 916-2180,,,,,12/31/2050,Active,Silver,Arts & Entertainment->Music Venues,,,,,New Listing Template,,,,,,,,,,,,,,,,
City Pork Perkins,City Pork Perkins Baton Rouge,,,18143 Perkins Rd E,,United States,US,,,Louisiana,LA,Baton Rouge,,,,70810,,,(225) 998-0744,,,,,12/31/2050,Active,Silver,Restaurants->Breakfast & Brunch,Restaurants->Barbeque,Nightlife->Bars->Cocktail Bars,,,New Listing Template,,,,,,,,,,,,,,,,
Cheba Hut Toasted Subs,Cheba Hut Toasted Subs Baton Rouge,,,411 Ben Hur Rd,,United States,US,,,Louisiana,LA,Baton Rouge,,,,70820,,,(225) 256-3603,,,,,12/31/2050,Active,Silver,Restaurants->Sandwiches,Nightlife->Bars,,,,New Listing Template,,,,,,,,,,,,,,,,
Locals Bar and Kitchen,Locals Bar and Kitchen Denham Springs,,,7755 Magnolia Beach Rd,,United States,US,,,Louisiana,LA,Denham Springs,,,,70726,,,(225) 380-5555,,,,,12/31/2050,Active,Silver,Nightlife->Bars->Sports Bars,Restaurants->American,,,,New Listing Template,,,,,,,,,,,,,,,,
Mom's Place,Mom's Place Prairieville,,,42028 Highway 42,,United States,US,,,Louisiana,LA,Prairieville,,,,70769,,,(225) 622-1682,,,,,12/31/2050,Active,Silver,Nightlife,,,,,New Listing Template,,,,,,,,,,,,,,,,
MonteCristo Cigar Bar & Bistro,MonteCristo Cigar Bar & Bistro Baton Rouge,,,7808 Howell Blvd,,United States,US,,,Louisiana,LA,Baton Rouge,,,,70807,,,(225) 256-1761,,,,,12/31/2050,Active,Silver,Nightlife->Bars->Lounges,Nightlife->Bars->Cigar Bars,,,,New Listing Template,,,,,,,,,,,,,,,,
Urban Daiquiris,Urban Daiquiris Prairieville,,,17497 Airline Hwy,,United States,US,,,Louisiana,LA,Prairieville,,,,70769,,,(225) 480-2222,,,,,12/31/2050,Active,Silver,Nightlife->Bars->Sports Bars,Nightlife->Bars->Cocktail Bars,Nightlife->Karaoke,,,New Listing Template,,,,,,,,,,,,,,,,
Tsunami Sushi Highland BR,Tsunami Sushi Highland BR Baton Rouge,,,1 Smart Wy,,United States,US,,,Louisiana,LA,Baton Rouge,,,,70810,,,(225) 497-2424,,,,,12/31/2050,Active,Silver,Nightlife->Bars,Restaurants->Sushi Bars,Restaurants->Tapas/Small Plates,,,New Listing Template,,,,,,,,,,,,,,,,
Mom’s Bar,Mom’s Bar Prairieville,,,42028  HWY 42,,United States,US,,,Louisiana,LA,Prairieville,,,,70769,,,(225) 290-1250,,,,,12/31/2050,Active,Silver,Nightlife->Bars->Dive Bars,Nightlife->Bars->Beer Bar,,,,New Listing Template,,,,,,,,,,,,,,,,
Bayou Billards,Bayou Billards Baton Rouge,,,10090 Florida Blvd,,United States,US,,,Louisiana,LA,Baton Rouge,,,,70815,,,(225) 275-9114,,,,,12/31/2050,Active,Silver,Nightlife->Pool Halls,,,,,New Listing Template,,,,,,,,,,,,,,,,
Chocolate City Sports Bar And Lounge,Chocolate City Sports Bar And Lounge Baton Rouge,,,4961 Gus Young Ave,,United States,US,,,Louisiana,LA,Baton Rouge,,,,70802,,,(225) 442-4176,,,,,12/31/2050,Active,Silver,Nightlife->Bars->Lounges,Nightlife->Bars->Sports Bars,,,,New Listing Template,,,,,,,,,,,,,,,,
Jolie Pearl Oyster Bar,Jolie Pearl Oyster Bar Baton Rouge,,,315 N Blvd,,United States,US,,,Louisiana,LA,Baton Rouge,,,,70801,,,(225) 615-7172,,,,,12/31/2050,Active,Silver,Restaurants->Cajun/Creole,Restaurants->Seafood,Nightlife->Bars->Cocktail Bars,,,New Listing Template,,,,,,,,,,,,,,,,
Tiger Sports Bar,Tiger Sports Bar Baton Rouge,,,826 O'neal Ln,,United States,US,,,Louisiana,LA,Baton Rouge,,,,70816,,,(225) 272-7595,,,,,12/31/2050,Active,Silver,Nightlife->Bars->Sports Bars,Nightlife->Pool Halls,,,,New Listing Template,,,,,,,,,,,,,,,,
Palermo Ristorante,Palermo Ristorante Baton Rouge,,,7809 Jefferson Hwy A,,United States,US,,,Louisiana,LA,Baton Rouge,,,,70809,,,(225) 246-8358,,,,,12/31/2050,Active,Silver,Restaurants->Italian,Restaurants->Pizza,Nightlife->Bars->Cocktail Bars,,,New Listing Template,,,,,,,,,,,,,,,,
Playboy's Lounge,Playboy's Lounge Port Allen,,,4011 Mulatto Bend Rd,,United States,US,,,Louisiana,LA,Port Allen,,,,70767,,,(225) 383-2082,,,,,12/31/2050,Active,Silver,Nightlife,,,,,New Listing Template,,,,,,,,,,,,,,,,
Spoke & Hub,Spoke & Hub Baton Rouge,,,5412 Government St,,United States,US,,,Louisiana,LA,Baton Rouge,,,,70806,,,(225) 529-3550,,,,,12/31/2050,Active,Silver,Restaurants->Breakfast & Brunch,Nightlife->Bars,Restaurants->Southern,,,New Listing Template,,,,,,,,,,,,,,,,
Firehaus - Baton Rouge,Firehaus - Baton Rouge Baton Rouge,,,1700 Government St,,United States,US,,,Louisiana,LA,Baton Rouge,,,,70802,,,,,,,,12/31/2050,Active,Silver,Nightlife->Bars->Wine Bars,Nightlife->Bars->Lounges,,,,New Listing Template,,,,,,,,,,,,,,,,
Baby 4,Baby 4 Baton Rouge,,,,,United States,US,,,Louisiana,LA,Baton Rouge,,,,70815,,,(225) 933-0148,,,,,12/31/2050,Active,Silver,Arts & Entertainment->Music Venues,,,,,New Listing Template,,,,,,,,,,,,,,,,
ESPN BET Sportsbook,ESPN BET Sportsbook Baton Rouge,,,777 L'auberge Ave,,United States,US,,,Louisiana,LA,Baton Rouge,,,,70820,,,(225) 224-4122,,,,,12/31/2050,Active,Silver,Restaurants->American,Restaurants->Chicken Wings,Nightlife->Bars->Sports Bars,,,New Listing Template,,,,,,,,,,,,,,,,
Suthern Kumfort's Gentleman's Club,Suthern Kumfort's Gentleman's Club Prairieville,,,17807 Airline Hwy,,United States,US,,,Louisiana,LA,Prairieville,,,,70769,,,(225) 673-6541,,,,,12/31/2050,Active,Silver,Nightlife->Dance Clubs,,,,,New Listing Template,,,,,,,,,,,,,,,,
New Orleans Original Daiquiris,New Orleans Original Daiquiris Geismar,,,13375 Hwy 73,,United States,US,,,Louisiana,LA,Geismar,,,,70734,,,(225) 313-3262,,,,,12/31/2050,Active,Silver,Nightlife->Bars->Sports Bars,,,,,New Listing Template,,,,,,,,,,,,,,,,
Cj's Daiquiris,Cj's Daiquiris Baton Rouge,,,9618 Jefferson Hwy,,United States,US,,,Louisiana,LA,Baton Rouge,,,,70809,,,(225) 448-2188,,,,,12/31/2050,Active,Silver,Nightlife->Bars->Sports Bars,,,,,New Listing Template,,,,,,,,,,,,,,,,
Cedar,Cedar Baton Rouge,,,1707 Gardere Ln,,United States,US,,,Louisiana,LA,Baton Rouge,,,,70820,,,(225) 256-5343,,,,,12/31/2050,Active,Silver,Food->Juice Bars & Smoothies,Restaurants->Cafes,Nightlife->Bars->Hookah Bars,,,New Listing Template,,,,,,,,,,,,,,,,
The Brakes Bar,The Brakes Bar Baton Rouge,,,5412 Government St,,United States,US,,,Louisiana,LA,Baton Rouge,,,,70806,,,(225) 529-3550,,,,,12/31/2050,Active,Silver,Nightlife->Bars->Cocktail Bars,Arts & Entertainment->Music Venues,,,,New Listing Template,,,,,,,,,,,,,,,,
Walk-On's Sports Bistreaux - Juban Crossing Restaurant,Walk-On's Sports Bistreaux - Juban Crossing Restaurant Denham Springs,,,27010 Crossing Cir,,United States,US,,,Louisiana,LA,Denham Springs,,,,70726,,,(225) 243-7543,,,,,12/31/2050,Active,Silver,Restaurants->American,Nightlife->Bars->Sports Bars,Restaurants->Cajun/Creole,,,New Listing Template,,,,,,,,,,,,,,,,
Country Bar & Grill,Country Bar & Grill Denham Springs,,,51662 Highway 16,,United States,US,,,Louisiana,LA,Denham Springs,,,,70706,,,(225) 667-7746,,,,,12/31/2050,Active,Silver,Nightlife->Bars->Sports Bars,,,,,New Listing Template,,,,,,,,,,,,,,,,
Monjunis Italian Cafe,Monjunis Italian Cafe Baton Rouge,,,711 Jefferson Hwy,,United States,US,,,Louisiana,LA,Baton Rouge,,,,70806,,,(225) 231-1595,,,,,12/31/2050,Active,Silver,Restaurants->Italian,Restaurants->Seafood,Nightlife->Bars->Cocktail Bars,,,New Listing Template,,,,,,,,,,,,,,,,
Situla Ultra Lounge,Situla Ultra Lounge Baton Rouge,,,2436 North St,,United States,US,,,Louisiana,LA,Baton Rouge,,,,70802,,,(225) 571-3290,,,,,12/31/2050,Active,Silver,Nightlife->Bars,Arts & Entertainment->Music Venues,,,,New Listing Template,,,,,,,,,,,,,,,,
Corner Bar,Corner Bar Gonzales,,,12260 Roddy Rd,,United States,US,,,Louisiana,LA,Gonzales,,,,70737,,,(225) 647-0234,,,,,12/31/2050,Active,Silver,Nightlife,,,,,New Listing Template,,,,,,,,,,,,,,,,
J's Joint,J's Joint Plaquemine,,,58710 Belleview Rd,,United States,US,,,Louisiana,LA,Plaquemine,,,,70764,,,(225) 238-7696,,,,,12/31/2050,Active,Silver,Nightlife->Bars->Sports Bars,Restaurants->Burgers,Restaurants->Steakhouses,,,New Listing Template,,,,,,,,,,,,,,,,
Spanky's Daiquiries & Delites,Spanky's Daiquiries & Delites Baton Rouge,,,4621 S Sherwood Forest Blvd,,United States,US,,,Louisiana,LA,Baton Rouge,,,,70816,,,(225) 295-3314,,,,,12/31/2050,Active,Silver,Nightlife->Bars,,,,,New Listing Template,,,,,,,,,,,,,,,,
Joe Joe's Lounge,Joe Joe's Lounge Port Allen,,,3065 Rosedale Rd,,United States,US,,,Louisiana,LA,Port Allen,,,,70767,,,(225) 383-0674,,,,,12/31/2050,Active,Silver,Nightlife,,,,,New Listing Template,,,,,,,,,,,,,,,,
Mike Anderson's - Prairieville,Mike Anderson's - Prairieville Prairieville,,,16400 Airline Hwy,,United States,US,,,Louisiana,LA,Prairieville,,,,70769,,,(225) 677-6453,,,,,12/31/2050,Active,Silver,Restaurants->Southern,Restaurants->Seafood,Nightlife->Bars->Cocktail Bars,,,New Listing Template,,,,,,,,,,,,,,,,
Da Truf Eel Entertainment,Da Truf Eel Entertainment Baton Rouge,,,11154 Susan Ave,,United States,US,,,Louisiana,LA,Baton Rouge,,,,70815,,,(225) 888-9842,,,,,12/31/2050,Active,Silver,Arts & Entertainment->Music Venues,Local Services->Recording & Rehearsal Studios,,,,New Listing Template,,,,,,,,,,,,,,,,
Club Castle,Club Castle Baton Rouge,,,6763 Van Gogh Ave,,United States,US,,,Louisiana,LA,Baton Rouge,,,,70806,,,(225) 337-8105,,,,,12/31/2050,Active,Silver,Nightlife->Bars,,,,,New Listing Template,,,,,,,,,,,,,,,,
Taqueria Solis,Taqueria Solis Baton Rouge,,,11904 Coursey Blvd,,United States,US,,,Louisiana,LA,Baton Rouge,,,,70816,,,,,,,,12/31/2050,Active,Silver,Restaurants->Mexican,Nightlife->Bars->Sports Bars,,,,New Listing Template,,,,,,,,,,,,,,,,
Henry Turner Jr's Listening Room,Henry Turner Jr's Listening Room Baton Rouge,,,2733 North St,,United States,US,,,Louisiana,LA,Baton Rouge,,,,70802,,,(225) 802-9681,,,,,12/31/2050,Active,Silver,Arts & Entertainment->Music Venues,Event Planning & Services->Venues & Event Spaces,,,,New Listing Template,,,,,,,,,,,,,,,,
Hooters,Hooters Baton Rouge,,,5120 Corporate Blvd,,United States,US,,,Louisiana,LA,Baton Rouge,,,,70806,,,(225) 928-7221,,,,,12/31/2050,Active,Silver,Restaurants->American,Nightlife->Bars->Sports Bars,Restaurants->Chicken Wings,,,New Listing Template,,,,,,,,,,,,,,,,
Tiger Paw,Tiger Paw Baton Rouge,,,13711 Coursey Blvd,,United States,US,,,Louisiana,LA,Baton Rouge,,,,70817,,,(225) 771-8887,,,,,12/31/2050,Active,Silver,Restaurants->American,Nightlife->Bars->Sports Bars,,,,New Listing Template,,,,,,,,,,,,,,,,
Epic Audio Productions,Epic Audio Productions Denham Springs,,,,,United States,US,,,Louisiana,LA,Denham Springs,,,,70726,,,(225) 620-7996,,,,,12/31/2050,Active,Silver,Nightlife->Karaoke,Event Planning & Services->DJs,,,,New Listing Template,,,,,,,,,,,,,,,,
Culture Sports Bar and Live Entertainment,Culture Sports Bar and Live Entertainment Baton Rouge,,,4612 Bennington Ave,,United States,US,,,Louisiana,LA,Baton Rouge,,,,70808,,,(225) 256-4317,,,,,12/31/2050,Active,Silver,Nightlife->Bars->Sports Bars,Arts & Entertainment->Music Venues,,,,New Listing Template,,,,,,,,,,,,,,,,
Alligator Bayou Bar,Alligator Bayou Bar Prairieville,,,35019 Alligator Bayou Rd,,United States,US,,,Louisiana,LA,Prairieville,,,,70769,,,(225) 673-4787,,,,,12/31/2050,Active,Silver,Nightlife,,,,,New Listing Template,,,,,,,,,,,,,,,,
Ooh Dat Sports Bar & Grill,Ooh Dat Sports Bar & Grill Baton Rouge,,,4886 Plank Rd,,United States,US,,,Louisiana,LA,Baton Rouge,,,,70805,,,(225) 357-0908,,,,,12/31/2050,Active,Silver,Nightlife->Bars->Sports Bars,Restaurants->Seafood,Restaurants->Chicken Wings,,,New Listing Template,,,,,,,,,,,,,,,,
Zydeco Bar and Restaurant,Zydeco Bar and Restaurant Baton Rouge,,,4914 Constitution Ave,,United States,US,,,Louisiana,LA,Baton Rouge,,,,70808,,,(225) 228-7172,,,,,12/31/2050,Active,Silver,Nightlife->Bars,Restaurants->American,,,,New Listing Template,,,,,,,,,,,,,,,,
Urban Daiquiris,Urban Daiquiris Denham Springs,,,27750 Juban Rd,,United States,US,,,Louisiana,LA,Denham Springs,,,,70726,,,(225) 480-2222,,,,,12/31/2050,Active,Silver,Nightlife->Bars->Cocktail Bars,,,,,New Listing Template,,,,,,,,,,,,,,,,
La Chilanga Taco House,La Chilanga Taco House Baton Rouge,,,220 W Lee Dr,,United States,US,,,Louisiana,LA,Baton Rouge,,,,70808,,,(225) 256-5573,,,,,12/31/2050,Active,Silver,Restaurants->Mexican->Tacos,Nightlife->Bars->Beer Bar,,,,New Listing Template,,,,,,,,,,,,,,,,
Pisces Lounge,Pisces Lounge Baton Rouge,,,1645 N Acadian Thruway W,,United States,US,,,Louisiana,LA,Baton Rouge,,,,70802,,,(225) 343-9000,,,,,12/31/2050,Active,Silver,Nightlife,,,,,New Listing Template,,,,,,,,,,,,,,,,
Sips Daiquiris,Sips Daiquiris Baton Rouge,,,4225 Nicholson Dr,,United States,US,,,Louisiana,LA,Baton Rouge,,,,70808,,,(225) 218-4678,,,,,12/31/2050,Active,Silver,Food->Beverage Store,Nightlife->Bars->Cocktail Bars,,,,New Listing Template,,,,,,,,,,,,,,,,
Mustard Seed Creamery,Mustard Seed Creamery Denham Springs,,,111 N Range Ave,,United States,US,,,Louisiana,LA,Denham Springs,,,,70726,,,(225) 325-9939,,,,,12/31/2050,Active,Silver,Food->Ice Cream & Frozen Yogurt,Restaurants->Tapas/Small Plates,Nightlife->Bars->Wine Bars,,,New Listing Template,,,,,,,,,,,,,,,,
New Orleans Original Daiquiris,New Orleans Original Daiquiris Baton Rouge,,,3404 Drusilla Ln,,United States,US,,,Louisiana,LA,Baton Rouge,,,,70809,,,(225) 447-8165,,,,,12/31/2050,Active,Silver,Nightlife->Bars,,,,,New Listing Template,,,,,,,,,,,,,,,,
Seafood Corner,Seafood Corner Gonzales,,,39436-39460 Hwy 621,,United States,US,,,Louisiana,LA,Gonzales,,,,70737,,,(225) 644-6706,,,,,12/31/2050,Active,Silver,Nightlife->Bars->Dive Bars,Restaurants->Seafood,,,,New Listing Template,,,,,,,,,,,,,,,,
Mango's Daiquiris,Mango's Daiquiris Baton Rouge,,,10330 Airline Hwy B3,,United States,US,,,Louisiana,LA,Baton Rouge,,,,70816,,,(225) 302-5139,,,,,12/31/2050,Active,Silver,Nightlife->Bars,,,,,New Listing Template,,,,,,,,,,,,,,,,
Rio Cantina Mexican Grill,Rio Cantina Mexican Grill Prairieville,,,17385 Airline Hwy,,United States,US,,,Louisiana,LA,Prairieville,,,,70769,,,(225) 402-2016,,,,,12/31/2050,Active,Silver,Restaurants->Mexican,Restaurants->Seafood,Nightlife->Bars->Cocktail Bars,,,New Listing Template,,,,,,,,,,,,,,,,
Tío Javi's Fresh-Mex Bar & Grill,Tío Javi's Fresh-Mex Bar & Grill Baton Rouge,,,4738 Constitution Ave,,United States,US,,,Louisiana,LA,Baton Rouge,,,,70808,,,(225) 924-0377,,,,,12/31/2050,Active,Silver,Restaurants->Mexican,Nightlife->Bars,,,,New Listing Template,,,,,,,,,,,,,,,,
Proverbial Wine Bistro,Proverbial Wine Bistro Baton Rouge,,,9659 Antioch Rd,,United States,US,,,Louisiana,LA,Baton Rouge,,,,70817,,,(225) 935-8207,,,,,12/31/2050,Active,Silver,Restaurants->New American,Nightlife->Bars->Wine Bars,Restaurants->Mediterranean,,,New Listing Template,,,,,,,,,,,,,,,,
Pete’s Tavern,Pete’s Tavern Baton Rouge,,,16705 Florida Blvd,,United States,US,,,Louisiana,LA,Baton Rouge,,,,70819,,,(225) 275-3424,,,,,12/31/2050,Active,Silver,Nightlife->Bars,Nightlife->Pool Halls,,,,New Listing Template,,,,,,,,,,,,,,,,
Fleming’s Prime Steakhouse & Wine Bar,Fleming’s Prime Steakhouse & Wine Bar Baton Rouge,,,7321 Corporate Blvd,,United States,US,,,Louisiana,LA,Baton Rouge,,,,70809,,,(225) 925-2710,,,,,12/31/2050,Active,Silver,Restaurants->Steakhouses,Nightlife->Bars->Wine Bars,Restaurants->Seafood,,,New Listing Template,,,,,,,,,,,,,,,,
The Revelry of Baton Rouge,The Revelry of Baton Rouge Baton Rouge,,,3347 Highland Rd,,United States,US,,,Louisiana,LA,Baton Rouge,,,,70802,,,(225) 465-3188,,,,,12/31/2050,Active,Silver,Nightlife->Bars,Nightlife->Karaoke,,,,New Listing Template,,,,,,,,,,,,,,,,
Daiquiri Depot,Daiquiri Depot Plaquemine,,,22917 Highway 1,,United States,US,,,Louisiana,LA,Plaquemine,,,,70764,,,(225) 687-0058,,,,,12/31/2050,Active,Silver,Nightlife,,,,,New Listing Template,,,,,,,,,,,,,,,,
Fratelli's Italian Grille,Fratelli's Italian Grille Prairieville,,,17588 Airline Hwy,,United States,US,,,Louisiana,LA,Prairieville,,,,70769,,,(225) 313-4704,,,,,12/31/2050,Active,Silver,Restaurants->Italian,Nightlife->Bars->Wine Bars,Restaurants->Seafood,,,New Listing Template,,,,,,,,,,,,,,,,
Old School BBQ,Old School BBQ Baton Rouge,,,10655 Coursey Blvd W,,United States,US,,,Louisiana,LA,Baton Rouge,,,,70816,,,(225) 831-9336,,,,,12/31/2050,Active,Silver,Restaurants->Barbeque,Nightlife->Bars->Whiskey Bars,Nightlife->Bars->Cocktail Bars,,,New Listing Template,,,,,,,,,,,,,,,,
French Quarter Bar And Daiquiris,French Quarter Bar And Daiquiris Port Allen,,,310 S Alexander Ave,,United States,US,,,Louisiana,LA,Port Allen,,,,70767,,,(225) 726-7188,,,,,12/31/2050,Active,Silver,Nightlife->Bars->Cocktail Bars,,,,,New Listing Template,,,,,,,,,,,,,,,,
Nicks Package Liquor & Lounge,Nicks Package Liquor & Lounge Plaquemine,,,24410 Eden St,,United States,US,,,Louisiana,LA,Plaquemine,,,,70764,,,(225) 687-6060,,,,,12/31/2050,Active,Silver,Nightlife,,,,,New Listing Template,,,,,,,,,,,,,,,,
Lemoine's Mid-City Daiquiri,Lemoine's Mid-City Daiquiri Baton Rouge,,,5170 Government St,,United States,US,,,Louisiana,LA,Baton Rouge,,,,70806,,,(225) 465-4353,,,,,12/31/2050,Active,Silver,Nightlife->Bars->Sports Bars,Nightlife->Bar Crawl,Nightlife->Pool Halls,,,New Listing Template,,,,,,,,,,,,,,,,
Red Dragon Listening Room,Red Dragon Listening Room Baton Rouge,,,2401 Florida St,,United States,US,,,Louisiana,LA,Baton Rouge,,,,70806,,,,,,,,12/31/2050,Active,Silver,Arts & Entertainment->Music Venues,,,,,New Listing Template,,,,,,,,,,,,,,,,
Maduro Leaf,Maduro Leaf Baton Rouge,,,6120 Airline Hwy,,United States,US,,,Louisiana,LA,Baton Rouge,,,,70812,,,(225) 287-4119,,,,,12/31/2050,Active,Silver,Nightlife->Bars->Sports Bars,,,,,New Listing Template,,,,,,,,,,,,,,,,
Mix Masters DJs,Mix Masters DJs Baton Rouge,,,,,United States,US,,,Louisiana,LA,Baton Rouge,,,,70810,,,(225) 278-0611,,,,,12/31/2050,Active,Silver,Event Planning & Services->DJs,Nightlife->Karaoke,,,,New Listing Template,,,,,,,,,,,,,,,,
Brusly Lion's Den,Brusly Lion's Den Brusly,,,202 E Saint Francis St,,United States,US,,,Louisiana,LA,Brusly,,,,70719,,,(225) 749-2931,,,,,12/31/2050,Active,Silver,Nightlife,,,,,New Listing Template,,,,,,,,,,,,,,,,
Spanky's Daiquiris - Burbank,Spanky's Daiquiris - Burbank Baton Rouge,,,411 Ben Hur Rd,,United States,US,,,Louisiana,LA,Baton Rouge,,,,70820,,,(225) 663-2800,,,,,12/31/2050,Active,Silver,Nightlife->Bars->Sports Bars,,,,,New Listing Template,,,,,,,,,,,,,,,,
18 STEAK,18 STEAK Baton Rouge,,,777 L'auberge Ave,,United States,US,,,Louisiana,LA,Baton Rouge,,,,70820,,,(225) 224-4142,,,,,12/31/2050,Active,Silver,Restaurants->Steakhouses,Restaurants->New American,Nightlife->Bars->Wine Bars,,,New Listing Template,,,,,,,,,,,,,,,,
Lakeside Bar & Daiquiri's,Lakeside Bar & Daiquiri's Baton Rouge,,,7490 Burbank Dr,,United States,US,,,Louisiana,LA,Baton Rouge,,,,70820,,,(225) 767-8705,,,,,12/31/2050,Active,Silver,Nightlife->Bars,Restaurants->American,Restaurants->Seafood,,,New Listing Template,,,,,,,,,,,,,,,,
Phil's Oyster Bar & Seafood,Phil's Oyster Bar & Seafood Baton Rouge,,,4335 Perkins Rd,,United States,US,,,Louisiana,LA,Baton Rouge,,,,70808,,,(225) 924-3045,,,,,12/31/2050,Active,Silver,Restaurants->Seafood,Restaurants->Italian,Nightlife->Bars,,,New Listing Template,,,,,,,,,,,,,,,,
Doug Olinde,Doug Olinde Baton Rouge,,,1428 Seabord Ave,,United States,US,,,Louisiana,LA,Baton Rouge,,,,70810,,,(225) 769-7216,,,,,12/31/2050,Active,Silver,Event Planning & Services->Party Equipment Rentals,Event Planning & Services->Venues & Event Spaces,Arts & Entertainment->Music Venues,,,New Listing Template,,,,,,,,,,,,,,,,
Chucks Lounge,Chucks Lounge Addis,,,7922 1st St,,United States,US,,,Louisiana,LA,Addis,,,,70710,,,(225) 685-0250,,,,,12/31/2050,Active,Silver,Nightlife,,,,,New Listing Template,,,,,,,,,,,,,,,,
Murphy's Bar,Murphy's Bar Baton Rouge,,,268 W Chimes St,,United States,US,,,Louisiana,LA,Baton Rouge,,,,70802,,,(225) 395-1819,,,,,12/31/2050,Active,Silver,Nightlife->Bars,,,,,New Listing Template,,,,,,,,,,,,,,,,
Ms G's Tavern,Ms G's Tavern Baton Rouge,,,10070 Florida Blvd,,United States,US,,,Louisiana,LA,Baton Rouge,,,,70815,,,(225) 272-4749,,,,,12/31/2050,Active,Silver,Nightlife->Pool Halls,Nightlife->Bars->Sports Bars,,,,New Listing Template,,,,,,,,,,,,,,,,
Arts Council of Greater Baton Rouge,Arts Council of Greater Baton Rouge Baton Rouge,,,233 Saint Ferdinand St,,United States,US,,,Louisiana,LA,Baton Rouge,,,,70802,,,(225) 344-8558,,,,,12/31/2050,Active,Silver,Education->Art Classes,Arts & Entertainment->Jazz & Blues,,,,New Listing Template,,,,,,,,,,,,,,,,
Roadrunner Bar & Lounge,Roadrunner Bar & Lounge Port Allen,,,909 Court St,,United States,US,,,Louisiana,LA,Port Allen,,,,70767,,,(225) 383-3300,,,,,12/31/2050,Active,Silver,Nightlife,,,,,New Listing Template,,,,,,,,,,,,,,,,
Chatterbox Lounge 2.0 Inc,Chatterbox Lounge 2.0 Inc Baton Rouge,,,406 Louise St,,United States,US,,,Louisiana,LA,Baton Rouge,,,,70802,,,(225) 316-3026,,,,,12/31/2050,Active,Silver,Nightlife->Bars,,,,,New Listing Template,,,,,,,,,,,,,,,,
Superior Grill Highland,Superior Grill Highland Baton Rouge,,,7333 Highland Rd,,United States,US,,,Louisiana,LA,Baton Rouge,,,,70808,,,(225) 999-7333,,,,,12/31/2050,Active,Silver,Restaurants->Tex-Mex,Restaurants->Mexican,Nightlife->Bars->Cocktail Bars,,,New Listing Template,,,,,,,,,,,,,,,,
French Market Bistro,French Market Bistro Baton Rouge,,,16645 Highland Rd,,United States,US,,,Louisiana,LA,Baton Rouge,,,,70810,,,(225) 753-3500,,,,,12/31/2050,Active,Silver,Restaurants->French,Nightlife->Bars->Wine Bars,,,,New Listing Template,,,,,,,,,,,,,,,,
Ruby Slipper,Ruby Slipper Baton Rouge,,,3535 Perkins Rd,,United States,US,,,Louisiana,LA,Baton Rouge,,,,70808,,,(225) 460-4800,,,,,12/31/2050,Active,Silver,Restaurants->Breakfast & Brunch,Nightlife->Bars->Cocktail Bars,Restaurants->Sandwiches,,,New Listing Template,,,,,,,,,,,,,,,,
Frankie's Dawg House,Frankie's Dawg House Baton Rouge,,,2318 Cedardale Ave,,United States,US,,,Louisiana,LA,Baton Rouge,,,,70808,,,(225) 389-6255,,,,,12/31/2050,Active,Silver,Restaurants->Hot Dogs,Nightlife->Bars->Beer Bar,Nightlife->Bars->Cocktail Bars,,,New Listing Template,,,,,,,,,,,,,,,,
Bayou Bar,Bayou Bar Baton Rouge,,,9430 Jackie Cochran Dr,,United States,US,,,Louisiana,LA,Baton Rouge,,,,70807,,,(225) 355-0333,,,,,12/31/2050,Active,Silver,Nightlife->Bars,,,,,New Listing Template,,,,,,,,,,,,,,,,
Chelsea's Live,Chelsea's Live Baton Rouge,,,1010 Nicholson Dr,,United States,US,,,Louisiana,LA,Baton Rouge,,,,70802,,,,,,,,12/31/2050,Active,Silver,Arts & Entertainment->Music Venues,,,,,New Listing Template,,,,,,,,,,,,,,,,
French Connection,French Connection Baton Rouge,,,12114 Old Hammond Hwy,,United States,US,,,Louisiana,LA,Baton Rouge,,,,70816,,,(225) 272-6590,,,,,12/31/2050,Active,Silver,Nightlife->Bars,Restaurants->American,,,,New Listing Template,,,,,,,,,,,,,,,,
Enchanted Gardens Venue,Enchanted Gardens Venue Baton Rouge,,,6308 Quinn Dr,,United States,US,,,Louisiana,LA,Baton Rouge,,,,70817,,,(225) 256-2322,,,,,12/31/2050,Active,Silver,Event Planning & Services->Venues & Event Spaces,Event Planning & Services->Wedding Planning,Nightlife->Bars->Beer Bar,,,New Listing Template,,,,,,,,,,,,,,,,
Happy Note Lounge,Happy Note Lounge Baton Rouge,,,3753 Perkins Rd,,United States,US,,,Louisiana,LA,Baton Rouge,,,,70808,,,,,,,,12/31/2050,Active,Silver,Nightlife->Bars->Lounges,,,,,New Listing Template,,,,,,,,,,,,,,,,
Soji Modern Asian,Soji Modern Asian Baton Rouge,,,5050 Government St,,United States,US,,,Louisiana,LA,Baton Rouge,,,,70806,,,(225) 300-4448,,,,,12/31/2050,Active,Silver,Restaurants->Pan Asian,Restaurants->Japanese->Ramen,Nightlife->Bars->Cocktail Bars,,,New Listing Template,,,,,,,,,,,,,,,,
Tiger Bar,Tiger Bar Baton Rouge,,,1003 Bob Pettit Blvd,,United States,US,,,Louisiana,LA,Baton Rouge,,,,70820,,,(225) 767-0987,,,,,12/31/2050,Active,Silver,Nightlife->Bars,,,,,New Listing Template,,,,,,,,,,,,,,,,
Edge Lounge at L'Auberge Baton Rouge,Edge Lounge at L'Auberge Baton Rouge Baton Rouge,,,777 L'Auberge Avenue,,United States,US,,,Louisiana,LA,Baton Rouge,,,,70820,,,(225) 215-7777,,,,,12/31/2050,Active,Silver,Nightlife->Bars->Cocktail Bars,,,,,New Listing Template,,,,,,,,,,,,,,,,
Walk-On's Sports Bistreaux - Towne Center Restaurant,Walk-On's Sports Bistreaux - Towne Center Restaurant Baton Rouge,,,7425 Corporate Blvd,,United States,US,,,Louisiana,LA,Baton Rouge,,,,70809,,,(225) 448-3680,,,,,12/31/2050,Active,Silver,Nightlife->Bars->Sports Bars,Restaurants->Cajun/Creole,Restaurants->American,,,New Listing Template,,,,,,,,,,,,,,,,
El Paso Mexican Grill,El Paso Mexican Grill Denham Springs,,,6869 Magnolia Beach Rd,,United States,US,,,Louisiana,LA,Denham Springs,,,,70706,,,(225) 380-1528,,,,,12/31/2050,Active,Silver,Restaurants->Mexican,Nightlife->Bars,Restaurants->Tex-Mex,,,New Listing Template,,,,,,,,,,,,,,,,
Junction 44,Junction 44 Gonzales,,,1429 N Burnside Ave,,United States,US,,,Louisiana,LA,Gonzales,,,,70737,,,(225) 647-5586,,,,,12/31/2050,Active,Silver,Nightlife,,,,,New Listing Template,,,,,,,,,,,,,,,,
Tara Club Office,Tara Club Office Baton Rouge,,,1695 Tara Blvd,,United States,US,,,Louisiana,LA,Baton Rouge,,,,70806,,,(225) 925-5552,,,,,12/31/2050,Active,Silver,Nightlife,,,,,New Listing Template,,,,,,,,,,,,,,,,
Twin Peaks,Twin Peaks Baton Rouge,,,6990 Siegen Ln,,United States,US,,,Louisiana,LA,Baton Rouge,,,,70809,,,(225) 293-1955,,,,,12/31/2050,Active,Silver,Restaurants->American,Nightlife->Bars->Sports Bars,Restaurants->New American,,,New Listing Template,,,,,,,,,,,,,,,,
Daiquiri Daze,Daiquiri Daze Denham Springs,,,25765 La Hwy 16,,United States,US,,,Louisiana,LA,Denham Springs,,,,70726,,,(225) 243-6069,,,,,12/31/2050,Active,Silver,Nightlife->Bars->Cocktail Bars,,,,,New Listing Template,,,,,,,,,,,,,,,,
Pedro's Tacos And Tequila,Pedro's Tacos And Tequila Baton Rouge,,,7655 Andrea Dr,,United States,US,,,Louisiana,LA,Baton Rouge,,,,70809,,,(225) 831-3210,,,,,12/31/2050,Active,Silver,Restaurants->Mexican,Nightlife->Bars,Restaurants->Seafood,,,New Listing Template,,,,,,,,,,,,,,,,
DraftKings Sportsbook,DraftKings Sportsbook Baton Rouge,,,1717 River Park Blvd,,United States,US,,,Louisiana,LA,Baton Rouge,,,,70802,,,(225) 709-7777,,,,,12/31/2050,Active,Silver,Nightlife->Bars->Sports Bars,Arts & Entertainment->Casinos,,,,New Listing Template,,,,,,,,,,,,,,,,
Culture Sports Bar,Culture Sports Bar Baton Rouge,,,4612 Bennington Ave,,United States,US,,,Louisiana,LA,Baton Rouge,,,,70808,,,,,,,,12/31/2050,Active,Silver,Nightlife->Bars->Sports Bars,Restaurants->American,,,,New Listing Template,,,,,,,,,,,,,,,,
Herson's Private Club,Herson's Private Club Baton Rouge,,,3457 North St,,United States,US,,,Louisiana,LA,Baton Rouge,,,,70806,,,(225) 387-6633,,,,,12/31/2050,Active,Silver,Nightlife,,,,,New Listing Template,,,,,,,,,,,,,,,,
The Bullfish Bistro,The Bullfish Bistro Baton Rouge,,,14241 Airline Hwy,,United States,US,,,Louisiana,LA,Baton Rouge,,,,70817,,,(225) 478-1690,,,,,12/31/2050,Active,Silver,Restaurants->Caribbean,Restaurants->Southern,Nightlife->Bars->Cocktail Bars,,,New Listing Template,,,,,,,,,,,,,,,,
End Zone Sports Bar And Grill,End Zone Sports Bar And Grill Baton Rouge,,,4710 O'Neal Ln,,United States,US,,,Louisiana,LA,Baton Rouge,,,,70817,,,(225) 752-7477,,,,,12/31/2050,Active,Silver,Nightlife->Bars->Sports Bars,,,,,New Listing Template,,,,,,,,,,,,,,,,
5 starr daiquiri and sports bar,5 starr daiquiri and sports bar Baton Rouge,,,9842 Florida Blvd,,United States,US,,,Louisiana,LA,Baton Rouge,,,,70815,,,(225) 362-8274,,,,,12/31/2050,Active,Silver,Nightlife->Bars->Sports Bars,,,,,New Listing Template,,,,,,,,,,,,,,,,
Culture,Culture Baton Rouge,,,450 Oklahoma St,,United States,US,,,Louisiana,LA,Baton Rouge,,,,70802,,,(225) 371-0837,,,,,12/31/2050,Active,Silver,Nightlife->Dance Clubs,Nightlife->Bars,,,,New Listing Template,,,,,,,,,,,,,,,,
Bonta del Forno Ristorante,Bonta del Forno Ristorante Denham Springs,,,2660 Sac Au Lait Blvd,,United States,US,,,Louisiana,LA,Denham Springs,,,,70726,,,(225) 408-5393,,,,,12/31/2050,Active,Silver,Nightlife->Bars->Wine Bars,Restaurants->Italian,Nightlife->Bars->Cocktail Bars,,,New Listing Template,,,,,,,,,,,,,,,,
mid city makers,mid city makers Baton Rouge,,,541 S Eugene St,,United States,US,,,Louisiana,LA,Baton Rouge,,,,70806,,,(225) 800-3068,,,,,12/31/2050,Active,Silver,Food->Food Trucks,Shopping,Arts & Entertainment->Music Venues,,,New Listing Template,,,,,,,,,,,,,,,,
45 Smoke Shop,45 Smoke Shop Prairieville,,,40051 LA-42,,United States,US,,,Louisiana,LA,Prairieville,,,,70769,,,(225) 363-6039,,,,,12/31/2050,Active,Silver,Shopping->Vape Shops,Nightlife->Bars->Wine Bars,Nightlife->Bars->Cigar Bars,,,New Listing Template,,,,,,,,,,,,,,,,
The Smokey Pit,The Smokey Pit Baton Rouge,,,1916 Dallas Dr,,United States,US,,,Louisiana,LA,Baton Rouge,,,,70806,,,(225) 923-3998,,,,,12/31/2050,Active,Silver,Restaurants->Barbeque,Nightlife->Bars->Cocktail Bars,,,,New Listing Template,,,,,,,,,,,,,,,,
Independence Park Theatre and Cultural Center,Independence Park Theatre and Cultural Center Baton Rouge,,,7800 Independence Blvd,,United States,US,,,Louisiana,LA,Baton Rouge,,,,70806,,,,,,,,12/31/2050,Active,Silver,Arts & Entertainment->Performing Arts,Arts & Entertainment->Music Venues,Arts & Entertainment->Cultural Center,,,New Listing Template,,,,,,,,,,,,,,,,
